<?xml version="1.0" encoding="UTF-8"?>
<kml xmlns="http://www.opengis.net/kml/2.2" xmlns:atom="http://www.w3.org/2005/Atom"><Document><name>RR Lago di Loppio</name><description>Riserva naturale provinciale Lago di Loppio</description><open>1</open><atom:author><atom:name>Parco Naturale Locale del Monte Baldo</atom:name></atom:author><atom:link href="http://www.parks.it/biotopo.lago.loppio/map.php"/><Style id="ConfineRiservaRegionale">
				  <LineStyle>
					<color>7f007400</color>
					<width>2</width>
				  </LineStyle>
				  <PolyStyle>
					<color>aa007400</color>
					<fill>1</fill>  
				  </PolyStyle>
				</Style><Placemark id="BTLOP"><name>RR Lago di Loppio</name><description>Perimetro dell'area protetta</description><styleUrl>#ConfineRiservaRegionale</styleUrl><Polygon><outerBoundaryIs><LinearRing><coordinates>10.908696721581544,45.873614641864613,0 10.916405819945961,45.872361852426494,0 10.916419393386677,45.872383932922951,0 10.920478591394449,45.87134062857649,0 10.920501512269436,45.871323125691355,0 10.92192675981167,45.870234807586165,0 10.92221961567239,45.870007481578263,0 10.922240710704568,45.869710714716227,0 10.922203962357299,45.869571108542416,0 10.922197735107968,45.869547451490305,0 10.921858806871839,45.869125987542922,0 10.92147506485151,45.868581514992528,0 10.921449045604376,45.868544597968139,0 10.921250158196131,45.867912926850273,0 10.922224718781218,45.867344941149469,0 10.922730783389268,45.867048318708449,0 10.923292516581467,45.865921519261015,0 10.923623395881673,45.865248157511679,0 10.923648610196789,45.865196556686961,0 10.924332218338673,45.865049677113312,0 10.924551645517273,45.862818668231668,0 10.924564808984279,45.862704451579887,0 10.924566147301265,45.862692837919283,0 10.924543770880113,45.862653308489634,0 10.9243761078604,45.86246058743901,0 10.924299534381671,45.86237348598727,0 10.924263970525669,45.8623093673067,0 10.924203348417315,45.86217159490247,0 10.92419004300098,45.862141354338647,0 10.92445573813086,45.862125934342032,0 10.924752449348913,45.862107893936333,0 10.924748039599299,45.862057699282303,0 10.924731995341483,45.861931255848326,0 10.924660097900773,45.861198357724113,0 10.924599948820751,45.860691416991095,0 10.924372892744133,45.860063571607171,0 10.924637983311866,45.859703411584668,0 10.924878241727804,45.859419909920312,0 10.924887150108562,45.859409397280508,0 10.923826729084887,45.858729766188986,0 10.923864981059543,45.858706810065385,0 10.923936631904763,45.858478342438247,0 10.923952944057191,45.858358221381742,0 10.923899707324862,45.858318499631238,0 10.923830163056925,45.858256845950763,0 10.923812926245382,45.858220786872145,0 10.923839033472674,45.858169170907068,0 10.924805813811156,45.857563022114377,0 10.925032311523236,45.857412859883233,0 10.925115705076012,45.857409620090856,0 10.925161131582248,45.857390383215623,0 10.92520045639041,45.857361045050823,0 10.92521301463062,45.85733231102207,0 10.925203055662262,45.857286298001881,0 10.925152247783062,45.857249016489646,0 10.92508533407525,45.857197181312799,0 10.924978840268407,45.857121157643988,0 10.924879503987201,45.857194048915026,0 10.924853443542451,45.857239366538131,0 10.924853063143482,45.857291902925418,0 10.924468393067292,45.857537823280047,0 10.92414256137301,45.857759527562969,0 10.923930518302384,45.857902555408998,0 10.923777475042094,45.857999866458464,0 10.92370824284226,45.858036902980423,0 10.923656788949099,45.858035332120771,0 10.92339270053443,45.857974461077724,0 10.923079294494267,45.85790114187666,0 10.922930276271316,45.857869372283332,0 10.922582808918341,45.857809038900967,0 10.922120010801438,45.857755133880225,0 10.92167431340707,45.857707601621577,0 10.921641748520102,45.857704128849484,0 10.92147750866158,45.857607063929144,0 10.921398849891997,45.857560577077045,0 10.921373924577184,45.85752003318936,0 10.921365263401789,45.857505951446633,0 10.921045406488478,45.857613026686295,0 10.921032393446765,45.857617964612025,0 10.920799742631846,45.857706245239825,0 10.920661235227611,45.85778481390976,0 10.920544200850708,45.857882818446797,0 10.920367780082213,45.858077906599441,0 10.920224195213564,45.858286723015638,0 10.919939412519096,45.858659025373292,0 10.919525994561882,45.859165362661045,0 10.9191749032556,45.85959361235291,0 10.918814407563957,45.860039638700762,0 10.918613795120239,45.860301476478277,0 10.918437769373698,45.860522198849019,0 10.918336365287868,45.860649351980079,0 10.918073629616156,45.860958426406306,0 10.917700840837259,45.861392354278813,0 10.917553810991063,45.861569214926405,0 10.917467125669203,45.861673487891572,0 10.917352435342167,45.861868676284992,0 10.917185357879843,45.862186719623793,0 10.917147510818467,45.862292451603359,0 10.91709695156986,45.862424732089792,0 10.917025211918842,45.862728452552311,0 10.916919635367417,45.863031300684867,0 10.916871497365696,45.863243221874043,0 10.916802511345816,45.863460492771644,0 10.916797419819011,45.863476527461017,0 10.916523894017436,45.864151177248473,0 10.916464357591286,45.864247898637842,0 10.916292441033464,45.864434939971964,0 10.916264976459283,45.86442729378286,0 10.916240772328345,45.864451837014329,0 10.916198244598327,45.864495619706858,0 10.916139423844122,45.86455523791345,0 10.916091286684972,45.86460164836015,0 10.916015466419633,45.864664086254194,0 10.91591015919253,45.864765382378387,0 10.915796170375824,45.864862842997994,0 10.915679845136989,45.864975181245228,0 10.915596743085239,45.865051855880232,0 10.915504900875483,45.86513048616068,0 10.915308213567849,45.865301356668439,0 10.915246471748366,45.865366453508528,0 10.915163323046379,45.865456880778069,0 10.915120759424044,45.865514779464498,0 10.915096278145414,45.865563687496334,0 10.915074665652172,45.865598070696265,0 10.915019240406014,45.86568875761499,0 10.914993721622624,45.865730082824008,0 10.914984948541738,45.865746154844338,0 10.914933124103573,45.865836057696185,0 10.914883800645807,45.865923384899702,0 10.914856762810089,45.866003461961533,0 10.914821306997322,45.86608729841042,0 10.914786298363412,45.866184157666879,0 10.914780265720379,45.866212126763536,0 10.91476046661669,45.866299320821014,0 10.914757129760885,45.866315301696609,0 10.914738456172163,45.866412610771839,0 10.914731427214583,45.866459850865688,0 10.914718333527277,45.866543168420115,0 10.914716021551895,45.866566370478374,0 10.91470389045768,45.866671676808203,0 10.914684571949941,45.866821113436906,0 10.914668388870302,45.866965286097674,0 10.91464934846068,45.867122824982694,0 10.914644056189374,45.867246257485483,0 10.914644263231704,45.867282446730322,0 10.91463920864409,45.867334359284243,0 10.914630454504884,45.867423394229405,0 10.914625501677078,45.867520473287598,0 10.914615899665083,45.867608943695586,0 10.914591673744933,45.867669864155708,0 10.914585588267357,45.86770384208782,0 10.914516143326324,45.867763493484425,0 10.914408775416355,45.867853313510153,0 10.914360163372899,45.867892058061642,0 10.914285277867592,45.867932111465159,0 10.914218738666889,45.867943651149488,0 10.914092238055204,45.867965170166777,0 10.914041369659868,45.867974419297077,0 10.913984543960977,45.867985216436793,0 10.913933912646215,45.86799533011412,0 10.91383125576408,45.868005157951927,0 10.913790356612088,45.868009028535674,0 10.9137194462529,45.868013980646261,0 10.913621464280125,45.868021124271792,0 10.913553068889978,45.868026902714035,0 10.913363613246151,45.868043686281212,0 10.91315407966693,45.868067175606143,0 10.913098534774681,45.868073028370588,0 10.912953741822147,45.868111067243305,0 10.912841373256073,45.868133796418171,0 10.912746327778438,45.868172159444939,0 10.912681310921473,45.868203940513325,0 10.912595309791339,45.868246205885782,0 10.912463570014236,45.868308347263515,0 10.912442791818762,45.868318829026464,0 10.912340715662831,45.868369760089188,0 10.912318084084069,45.868380562679988,0 10.912139688691127,45.868466068395335,0 10.912103024404246,45.868484634028761,0 10.912033973493561,45.868519666700372,0 10.911998551720073,45.868538210601876,0 10.911947685769313,45.86856570047096,0 10.911875037087549,45.868604556456823,0 10.911813550947214,45.868636566855443,0 10.911769163658422,45.868659604475525,0 10.911718141057886,45.868688544175534,0 10.911675994289375,45.868716466743372,0 10.911646529509159,45.868739543500013,0 10.911464445044064,45.868783996505066,0 10.911078540276236,45.868891794127528,0 10.911000043793354,45.868893107373346,0 10.910916366238606,45.868882347297045,0 10.910890368073519,45.86887959776859,0 10.910717944348814,45.868861346624328,0 10.910653291090428,45.868849398663421,0 10.910596961602755,45.868832389860543,0 10.910474262573397,45.868795644567832,0 10.910343157839698,45.868743404608267,0 10.910047142835586,45.8686734653473,0 10.909539798249785,45.868516142236807,0 10.909323473456412,45.868442679030572,0 10.909204568211896,45.868406166882437,0 10.909072453407303,45.868525198617668,0 10.909023917627696,45.868568928700419,0 10.908807009770436,45.868764354791203,0 10.908731756293234,45.868832155338517,0 10.908238691391377,45.869276380722745,0 10.908141323381379,45.869364103417517,0 10.908081690798072,45.869417829218321,0 10.907715245825116,45.869747968501557,0 10.907669459636828,45.86979085731604,0 10.907712523535118,45.869966936980127,0 10.907731578199551,45.870057207146566,0 10.907787756480678,45.870274622159357,0 10.907817238846159,45.870383110168341,0 10.907847076050034,45.870501961941642,0 10.907878972088785,45.870615497710411,0 10.907901741714078,45.870716075491202,0 10.907923021002309,45.870818244279327,0 10.907942450745194,45.870882487128078,0 10.907965084682008,45.870962719289992,0 10.90796807876977,45.871027040441817,0 10.907971654732998,45.871121874126118,0 10.907972971688718,45.871184853383888,0 10.90795342077063,45.871260117016867,0 10.907927534389092,45.871346638324027,0 10.907907700175203,45.871397253780167,0 10.90788739100427,45.871462452887826,0 10.90788929892534,45.871471929353334,0 10.907883474633321,45.871487429518709,0 10.907847225149219,45.871583902244375,0 10.907805343802275,45.871669503474145,0 10.907758422506914,45.871800905178922,0 10.907621757473704,45.872110139980443,0 10.907584676051185,45.872221784571373,0 10.907511618937852,45.872409135285572,0 10.907401643419757,45.872678738689828,0 10.907385408771422,45.872716562460113,0 10.907345771732023,45.872856005966767,0 10.907324030630951,45.872903718023501,0 10.907226562038641,45.873129028820252,0 10.907171025412046,45.87326757663395,0 10.907144425789875,45.873302547387368,0 10.907217818516974,45.873325944303275,0 10.907304966996962,45.873353726144366,0 10.907418233862012,45.873388991499702,0 10.907587828630918,45.873441670306953,0 10.907810713174262,45.87353615362322,0 10.908100698838702,45.873600401123177,0 10.908267196595439,45.873612001099687,0 10.908334492024823,45.87362747144072,0 10.908407176510618,45.873644946168689,0 10.908683529135592,45.87361602339049,0 10.908696721581544,45.873614641864613,0</coordinates></LinearRing></outerBoundaryIs>
 </Polygon>
  </Placemark></Document></kml>
