<?xml version="1.0" encoding="UTF-8"?>
<kml xmlns="http://www.opengis.net/kml/2.2" xmlns:atom="http://www.w3.org/2005/Atom"><Document><name>Parco Locale del Monte Baldo: Percorso Giallo: Vallagarina - Monte Baldo </name><description></description><open>1</open><atom:author><atom:name>Parco Naturale Locale del Monte Baldo</atom:name></atom:author><atom:link href="http://www.parks.it/parco.locale.monte.baldo/iti.php?id_iti=3191"/>				<Style id="Itinerario">
				  <LineStyle>
					<color>ff00ffff</color>
					<width>4</width>
				  </LineStyle>
				</Style>
				<Placemark><styleUrl>#Itinerario</styleUrl><name>Percorso Giallo: Vallagarina - Monte Baldo </name><LineString><coordinates>10.9703361340779,45.852516847601528,0 10.967895120889009,45.852464447264822,0 10.967046097299813,45.852357573291876,0 10.966556592957959,45.852127494160598,0 10.965559287138928,45.851604641293449,0 10.965073281644715,45.851473500778596,0 10.964602868363125,45.851373591534738,0 10.963930882056298,45.851218645180893,0 10.962011191536167,45.850972639562357,0 10.96149684308206,45.85090497427165,0 10.960608996267759,45.850929226385354,0 10.96011828200705,45.850892650645314,0 10.95865264790187,45.850922306474011,0 10.958314690771951,45.850788596998669,0 10.958130400461295,45.850400237502093,0 10.958251982995774,45.850240643637868,0 10.958749718268084,45.850110598110803,0 10.959042954509021,45.849979559688485,0 10.959047956980953,45.849709459523076,0 10.958400497149153,45.849014031036297,0 10.957951220022052,45.848873229623223,0 10.956959608238561,45.848692222018897,0 10.95682259571441,45.848595565396693,0 10.956414399314411,45.847927525718994,0 10.954819068086467,45.847423826498421,0 10.954292336811369,45.847185331658885,0 10.953641196991212,45.846795955336425,0 10.953035888346426,45.846657804670592,0 10.952730078861588,45.846613533427998,0 10.95172687424483,45.846426649306018,0</coordinates></LineString>
  </Placemark>
<Placemark><styleUrl>#Itinerario</styleUrl><name>Percorso Giallo: Vallagarina - Monte Baldo </name><LineString><coordinates>10.920137917489219,45.847487399881359,0 10.920254276676218,45.847577777371697,0 10.920587404978718,45.847985783419077,0 10.921071006122341,45.848279761897984,0 10.921409602177805,45.848547405631336,0 10.921786130035834,45.848720898359829,0 10.922118291099151,45.84880162486386,0 10.922459254553013,45.848839042696092,0 10.922646157843575,45.848886247596759,0 10.922867887993007,45.849047957317538,0 10.922895649974553,45.849256092872466,0 10.922809756298417,45.84945175668004,0 10.922712831103343,45.849626026202664,0 10.922727827151379,45.849762444809294,0 10.922834417233677,45.849868547903711,0 10.922968648216084,45.849880673035784,0 10.923080322096585,45.849835632972855,0 10.923210587714992,45.849732733450018,0 10.923275905465955,45.849537415724214,0 10.923411002750933,45.849276183928538,0 10.923578944262909,45.849071944409246,0 10.923739819679975,45.848961334875135,0 10.923848267647449,45.848822836408843,0 10.923882473194583,45.848620849552844,0 10.923895360971638,45.848397642762649,0 10.923880114591066,45.848254035154739,0 10.923929070214101,45.848181277839494,0 10.92400083102995,45.848172875369698,0 10.924157120479666,45.848227787088462,0 10.924266687081111,45.848420157095873,0 10.924355183876777,45.848598496044936,0 10.924501684442184,45.848667958139131,0 10.924614097213746,45.848644483845284,0 10.924683131394163,45.848557001028126,0 10.924623758158196,45.84832781908068,0 10.924613588080895,45.848033068652434,0 10.924346987580895,45.847764220526749,0 10.924115467333593,45.847617065053427,0 10.924040483643013,45.847532010449441,0 10.924068864330151,45.847459599837073,0 10.924140129017315,45.847436818956751,0 10.924274106371904,45.847441753767946,0 10.924431881339315,45.847539799557083,0 10.924850552873336,45.847741344288281,0 10.925212580279473,45.847792785413283,0 10.925431831721925,45.847882599704278,0 10.925561232575483,45.848053054216045,0 10.925727697500999,45.848402714324465,0 10.925819922038352,45.848688887387667,0 10.925935315325328,45.848751679625948,0 10.926035704233563,45.84867805368873,0 10.926097039039364,45.848367710308075,0 10.926202500900503,45.8481429410106,0 10.926422111140534,45.847945018502749,0 10.926551123888164,45.847806170132998,0 10.926619904100871,45.847711497348541,0 10.926650020464571,45.84768940962126,0 10.926701455909079,45.847688541539746,0 10.926836054028104,45.847711445938799,0 10.927126819070926,45.84778566323385,0 10.927364164454877,45.847803235811192,0 10.927651204856932,45.847769616506227,0 10.928092548838661,45.847733390473223,0 10.928453087595052,45.847741686982317,0 10.928692918054258,45.847831147378386,0 10.92884821656696,45.847857296344372,0 10.929245180356126,45.847728303671182,0 10.929658736471875,45.847483937652832,0 10.930191999774772,45.847129647884074,0 10.930384214704546,45.847032885861282,0 10.930600485375624,45.847036421811538,0 10.931003412632787,45.847079959687044,0 10.931271864126652,45.84710419131347,0 10.931457772855415,45.847122625817555,0 10.931774173234825,45.847045340037099,0 10.93205821874214,45.846925441478355,0 10.932374617925486,45.846848154052857,0 10.932744690783165,45.846834695729925,0 10.933155411916237,45.846806161755275,0 10.93350354075036,45.846753509887343,0 10.933907033025992,45.84651649220551,0 10.934269375509611,45.846280170043833,0 10.934586016314654,45.846210065582106,0 10.935079274370752,45.846187319147184,0 10.935768725486884,45.84618282354748,0 10.936179440730371,45.84615427878456,0 10.936496077451151,45.84608416908997,0 10.9368483704675,45.845855202523154,0 10.937330138663169,45.84550175292685,0 10.937834722202711,45.845212652966438,0 10.938147605683454,45.845034703962114,0 10.938453199902456,45.8449431965361,0 10.938863903551249,45.844914642295009,0 10.939222925134844,45.844879771170596,0 10.939488619637707,45.844824904909402,0 10.93997070128618,45.844777150625156,0 10.940609951692341,45.844809445154752,0 10.94086207545061,45.844956216698314,0 10.941019372163492,45.845039861064095,0 10.941297853731099,45.845056705224245,0 10.941441862539653,45.845054256228586,0 10.941775530377035,45.845178059464182,0 10.941942364035928,45.845239960580244,0 10.942117482369911,45.845244174590285,0 10.942322459150652,45.845219107776231,0 10.942792628279705,45.8451247884935,0 10.943059572148275,45.845105858824581,0 10.943145869233355,45.845219481519138,0 10.943244707050022,45.84539762966611,0 10.943443905376629,45.845502136894183,0 10.943498593489068,45.845594718227808,0 10.943290592707857,45.84582844198912,0 10.943171912552373,45.845967133770351,0 10.943184953871743,45.846046037173295,0 10.94370504058794,45.846202627307584,0 10.944090153040516,45.846325547843186,0 10.944275311010463,45.846322394505449,0 10.944566353860026,45.846108833662591,0 10.944963527777771,45.845692053630046,0 10.94531452770414,45.84542711703164,0 10.945575454550621,45.845235646519193,0 10.945948275489302,45.845006301945169,0 10.946252726631288,45.844882423613072,0 10.946365123541907,45.844858927580553,0 10.946500099969935,45.844892592366662,0 10.946617262246743,45.84500568616771,0 10.946765285291093,45.84511825357729,0 10.946970760819589,45.845402478453487,0 10.947141114465166,45.845565017095183,0 10.947391249916217,45.845654262212918,0 10.947638124814743,45.845650050596461,0 10.947851628902887,45.845574475787387,0 10.948081939768105,45.845390715276871,0 10.94822218286474,45.845280423479963,0 10.948323539934453,45.845235534446061,0 10.948581200776722,45.845245523115764,0 10.948881513817591,45.845297942305905,0 10.949216454099462,45.845457668247676,0 10.949467095483572,45.845561286868033,0 10.949696410846657,45.845643688851666,0 10.949820852430641,45.845670336844705,0 10.950016545466621,45.845674187320029,0 10.950378077275401,45.845711170705066,0 10.950730832872464,45.845791461867165,0 10.950988998603004,45.845815823170184,0 10.951399953819886,45.845794412450168,0 10.951646827154541,45.845790192190236,0 10.95190801254434,45.845900818256816,0 10.951932609757822,45.846015489534338,0 10.951798660722416,45.846305509102628,0 10.951729810974037,45.846424002477846,0</coordinates></LineString>
  </Placemark>
  <Placemark><styleUrl>#Itinerario</styleUrl><name>Percorso Giallo: Vallagarina - Monte Baldo </name><LineString><coordinates>10.919085740710557,45.846910649932894,0 10.91919451963866,45.846991367975711,0 10.919865248108758,45.847339751416094,0 10.92012736924084,45.84747920691332,0 10.920137917489219,45.847487399881359,0</coordinates></LineString>
  </Placemark>
  <Placemark><styleUrl>#Itinerario</styleUrl><name>Percorso Giallo: Vallagarina - Monte Baldo </name><LineString><coordinates>10.916401902403686,45.847178234368485,0 10.916421515007046,45.847167430724987,0 10.916794225340162,45.846930990644601,0 10.9172061020776,45.846636345133774,0 10.917629249921466,45.846370282152947,0 10.917791118412548,45.846288437363278,0 10.917923364093468,45.846243056726593,0 10.918057091074921,45.846240809973061,0 10.918253278517028,45.846259092724445,0 10.918452435375096,45.846363644764047,0 10.918824835516597,45.846717047103873,0 10.919085740710557,45.846910649932894,0</coordinates></LineString>
  </Placemark>
  <Placemark><styleUrl>#Itinerario</styleUrl><name>Percorso Giallo: Vallagarina - Monte Baldo </name><LineString><coordinates>10.911029230773856,45.845519205769811,0 10.911166092724432,45.845788117220629,0 10.911329013946879,45.846037152043571,0 10.911396645928281,45.846208657331218,0 10.91142584106084,45.846459931210731,0 10.911505731651607,45.846688776490161,0 10.911607428826921,45.846953222974619,0 10.911664036648732,45.847103332387029,0 10.911835033261928,45.847287492558934,0 10.911960941048493,45.847357316168889,0 10.912063563806054,45.847348404597227,0 10.912223965623181,45.84722343253933,0 10.912423788532507,45.847047448163835,0 10.912529549666623,45.846829879830409,0 10.912561330490322,45.84655600495838,0 10.912627668734279,45.846389449241165,0 10.912747166260361,45.846272355625743,0 10.912808393512154,45.846256943338261,0 10.912881140243398,45.846277304139925,0 10.913049179668434,45.846375193666219,0 10.913318431298659,45.846723148808451,0 10.913651873377976,45.847141960128006,0 10.913939486024013,45.847424867050776,0 10.914340259254635,45.847705875704548,0 10.914549947386451,45.847817450989055,0 10.914879625309283,45.847826308204127,0 10.915238189332104,45.847777133706742,0 10.915461195337135,45.847672035236066,0</coordinates></LineString>
  </Placemark>
  <Placemark><styleUrl>#Itinerario</styleUrl><name>Percorso Giallo: Vallagarina - Monte Baldo </name><LineString><coordinates>10.915461195337135,45.847672035236066,0 10.915491414735953,45.8476577933437,0 10.915673123740905,45.847554039213435,0 10.915695588743731,45.84754838415143,0 10.915703738247197,45.847546332693604,0 10.915977041152598,45.847412268208465,0 10.916401902403686,45.847178234368485,0</coordinates></LineString>
  </Placemark>
  <Placemark><styleUrl>#Itinerario</styleUrl><name>Percorso Giallo: Vallagarina - Monte Baldo </name><LineString><coordinates>10.911687026430114,45.843268959943892,0 10.911567533276061,45.843386052508194,0 10.911284010751098,45.843822393211369,0 10.911041628877607,45.844258044272415,0 10.910918740829532,45.84457660325382,0 10.910818394718806,45.844952330392132,0 10.910890210462719,45.845246050544979,0 10.911029230773856,45.845519205769811,0</coordinates></LineString>
  </Placemark>
  <Placemark><styleUrl>#Itinerario</styleUrl><name>Percorso Giallo: Vallagarina - Monte Baldo </name><LineString><coordinates>10.910668644687926,45.841958505149123,0 10.910658942436241,45.841981435857328,0 10.91064597781863,45.842006665829402,0 10.910623250352037,45.842043374420193,0 10.91060704757218,45.84207548448402,0 10.910617343381123,45.842164784162229,0 10.91064688635209,45.842178447023805,0 10.910689515130514,45.842189784062988,0 10.910758291284235,45.842191888609044,0 10.910790987578205,45.842182638421377,0 10.910862929101082,45.84216412031315,0 10.910938132917627,45.842143302882945,0 10.911029648399714,45.842110989031418,0 10.911088455456987,45.842085634972868,0 10.911150512659733,45.842055691189358,0 10.91118316027311,45.842037279229473,0 10.911228675112371,45.841975313906772,0 10.91123502984181,45.841938649525162,0 10.91125120794235,45.841901958548945,0 10.91127405633071,45.841888153994063,0 10.911296928982974,45.841878930265715,0 10.911319862338411,45.841881158608246,0 10.911405058995035,45.841892380092702,0 10.911500115508877,45.841910446144659,0 10.911601769614148,45.841937656020129,0 10.91168378919453,45.841967209496339,0 10.911795412814069,45.842021877541605,0 10.91188078006596,45.842065164478413,0 10.911949787265222,45.842110786192698,0 10.912015593123328,45.842170159242734,0 10.912058441253272,45.842222723233427,0 10.912094850060507,45.842295918720268,0 10.912111587699947,45.842364586707284,0 10.912118562783185,45.84244473344036,0 10.912112391208654,45.842515754078605,0 10.912096371781212,45.842582220560772,0 10.912067242128922,45.842646432181191,0 10.912015336906469,45.842738190991703,0 10.911982871721447,45.842790959411531,0 10.911937332759575,45.842848344195453,0 10.911807422468708,45.843050256070121,0 10.911690645883613,45.843259003532872,0 10.911687026430114,45.843268959943892,0</coordinates></LineString>
  </Placemark>
  <Placemark><styleUrl>#Itinerario</styleUrl><name>Percorso Giallo: Vallagarina - Monte Baldo </name><LineString><coordinates>10.910668644687926,45.841958505149123,0 10.910675048238639,45.841931002463184,0 10.910684702016676,45.841898910088709,0 10.910697581778463,45.841857647200534,0 10.910720212195661,45.841802615265863,0 10.910739580230226,45.841749882593973,0 10.910752302395675,45.84167884429408,0 10.910768311099227,45.84161008755455,0 10.910777795113574,45.841545929348811,0 10.910774290429536,45.841502420299257,0 10.9107445054581,45.84144294914212,0 10.910698384739662,45.841390393472253,0 10.910658849310073,45.841344691334989,0 10.910593106423656,45.841296769538225,0 10.910540521887533,45.841260264405101,0 10.910520778488795,45.841241994140361,0 10.910510785726954,45.841209954845247,0 10.91052706096893,45.841191587291661,0 10.910572696982697,45.841152526386871,0 10.910647754214779,45.841104224170785,0 10.910709798475464,45.841071990214736,0 10.910801288120279,45.841035095735883,0 10.910833947383063,45.84101897429651,0 10.910935211577689,45.840972891487148,0 10.910984206414028,45.840949854478417,0 10.91103982277761,45.840940542226754,0 10.911118420606932,45.840942620001918,0 10.9112035915207,45.840949260830982,0 10.911265853755317,45.840958254074955,0 10.911324865879646,45.840971836978078,0 10.911393701254866,45.840985393244218,0 10.911475622141484,45.840996623568195,0 10.911488707622622,45.840994297665596,0 10.911504958184322,45.840971349152198,0 10.911508159708385,45.840957597782271,0 10.911540575739167,45.84089566783264,0 10.911527065107848,45.840817829190243,0 10.911516804607702,45.840735400837239,0 10.911509927857498,45.840673577355318,0 10.911499825320281,45.840620924405144,0 10.911482979711582,45.840531642540974,0 10.911462896225657,45.840449240794101,0 10.911446220749035,45.840392024744979,0 10.911406406176493,45.840293643288796,0 10.911386456450085,45.840236436098898,0 10.911359945906481,45.840176956218897,0 10.911323612356458,45.840117502931925,0 10.911274145069344,45.840051213842194,0 10.911227891571393,45.839973463786677,0 10.911211192233633,45.83991166685901,0 10.911204449410951,45.839875037924244,0 10.911184451529174,45.839808669021735,0 10.91117433735446,45.839753725614827,0 10.911160839686897,45.83967817731498,0 10.91115393923033,45.839611772959387,0 10.911163301234691,45.839524710548822,0 10.91118550570147,45.839389513942692,0 10.911185226674744,45.839336834360644,0 10.911191362814007,45.839258942470941,0 10.911181382192879,45.839229193639909,0 10.91113857365546,45.839183500496794,0 10.91106292519601,45.839119572581318,0 10.910977369178855,45.839039638262435,0 10.91089509980675,45.838961985437244,0 10.910845779495196,45.838923181131065,0 10.910744022263506,45.838875356721609,0 10.910642277302498,45.838829822629855,0 10.910534020269507,45.838791177387122,0 10.91048811985964,45.838779849083203,0 10.91041606154729,45.838775462727341,0 10.910426041679163,45.838805211637521,0 10.910436033911566,45.838837250958164,0 10.910455994225673,45.838896748774616,0 10.910479289379444,45.838967689824926,0 10.910489547940154,45.839050118324693,0 10.910493294243647,45.839139435753623,0 10.910500326971212,45.839231034756111,0 10.910504024894077,45.839311190514202,0 10.910491242338678,45.839370776725445,0 10.910465326185063,45.839423527049078,0 10.910419872976563,45.839496944160807,0 10.910394113993428,45.839579469892328,0 10.910397715009985,45.839641302316025,0 10.910411114835817,45.839698527384691,0 10.910411453643828,45.839762659058664,0 10.91038557354395,45.839822280616922,0 10.910323651426509,45.839877418550323,0 10.910248535050261,45.839914268457363,0 10.910166918246397,45.839960297648943,0 10.91009511226798,45.840004009874029,0 10.910023306179244,45.840047722058792,0 10.90997758606955,45.840070749824811,0 10.909895715130112,45.840068680069471,0 10.90975793869919,45.840020951878309,0 10.909688996248031,45.839986780840853,0 10.909587129399162,45.839918341662759,0 10.909491799418603,45.839847594347631,0 10.90940955497739,45.83977452128449,0 10.909330681525629,45.839719762692617,0 10.90925830868497,45.839655824757422,0 10.909189150084556,45.839580425880612,0 10.90912979054975,45.839500419715876,0 10.909060644368166,45.839427311169501,0 10.909001345389125,45.839358757019269,0 10.908945405149744,45.839306226966883,0 10.908863234445562,45.839246895994314,0 10.908781051886633,45.839185274536447,0 10.908699001827383,45.839148847619697,0 10.908617072131415,45.839135324828071,0 10.908545109652051,45.839149260647076,0 10.908483246510752,45.839215849698945,0 10.90846410550709,45.839312099985484,0 10.90845168134353,45.839440398562147,0 10.908425907445146,45.839520633476475,0 10.908393536743235,45.839591724274626,0 10.908354605287995,45.839660542208556,0 10.908312351339154,45.83972020723192,0 10.908247176926832,45.8397799336867,0 10.908204718609181,45.839800661556652,0 10.908149186911976,45.839826005351952,0 10.908117436866087,45.839875850633284,0 10.908119957963942,45.839871892694518,0 10.90810385037075,45.839922325778126,0 10.908087778771089,45.839979630111095,0 10.908071623099962,45.84002090151116,0 10.908047472986061,45.840043601258024,0 10.908044618448896,45.840050119900553,0</coordinates></LineString>
  </Placemark>
  <Placemark><styleUrl>#Itinerario</styleUrl><name>Percorso Giallo: Vallagarina - Monte Baldo </name><LineString><coordinates>10.908044618448896,45.840050119900553,0 10.907999743351679,45.840050869937777,0 10.907960343083996,45.840030361409077,0 10.90796337742888,45.839984544266386,0 10.907986045868524,45.839936384082144,0 10.908018297250738,45.839842389202282,0 10.908050416490234,45.839723199712353,0 10.908079117225105,45.839576533954947,0 10.908098162926516,45.839461960374365,0 10.90812038683195,45.83932905466596,0 10.908129633477284,45.839219088235602,0 10.908116032027179,45.839122925734692,0 10.908069519634283,45.838994785084225,0 10.908016566905241,45.838887275723202,0 10.907993190902529,45.838800301179816,0 10.907986270355394,45.838729315724656,0 10.907998995472017,45.838658277651334,0 10.90801523483281,45.838633039187869,0 10.908087016751747,45.838584747424299,0 10.908152418086827,45.838568539031371,0 10.908253896377504,45.838563686158828,0 10.908338991294645,45.838556586673128,0 10.908407726874461,45.838551821453372,0 10.908476462435564,45.838547056190194,0 10.908509169036192,45.838540097099106,0 10.908541851584021,45.838528557158817,0 10.908571187719222,45.83850328348116,0 10.908597117302298,45.838452823979956,0 10.908609913736951,45.83839552835974,0 10.908606314824898,45.838333695834329,0 10.908586368719515,45.838276488080268,0 10.908549931200026,45.838196420056022,0 10.908483917453642,45.838095817292022,0 10.908411319436929,45.837988360793346,0 10.90834529418532,45.837885467523101,0 10.90828247134038,45.83776882291474,0 10.908245938544216,45.837670431417045,0 10.908209489932458,45.837588072841612,0 10.908163122775063,45.837487417216821,0 10.908113325559963,45.837356994883088,0 10.908073591169515,45.837272354605659,0 10.908027296528132,45.83718544142998,0 10.908000755104002,45.837119089403416,0 10.907987310463181,45.837052702297036,0 10.908013251945269,45.837004533337321,0 10.908039301371709,45.836976978147398,0 10.908117725535718,45.836946992202762,0 10.908235511711881,45.836930643435359,0 10.908405804685241,45.836937058283823,0 10.908507267965437,45.836929914813609,0 10.908628376238704,45.83692271854062,0 10.90874954461291,45.836926974233002,0 10.908903430654732,45.836926561029102,0 10.909011442172009,45.836919399519516,0 10.909119417538582,45.836905366658804,0 10.909161801066004,45.836870895962491,0 10.909197527798218,45.836815829085836,0 10.909236323815891,45.83672181627373,0 10.909271713012853,45.836602617641475,0 10.909307090021992,45.83648112857815,0 10.909322918468368,45.836378015691722,0 10.909322677453636,45.836332207311372,0 10.909332246792767,45.836284082088149,0 10.909358126506508,45.836224460746116,0 10.90939394907903,45.836187717164876,0 10.909452762804086,45.836164654429616,0 10.909537721242096,45.836132359499651,0 10.909638833058702,45.836058792896559,0 10.90971704993137,45.835989868761743,0 10.909798601065921,45.835932387849326,0 10.909857462640392,45.835918486587147,0 10.910011394153493,45.835927233607244,0 10.910198260196893,45.835972538821572,0 10.910381828229069,45.836013271721448,0 10.910490067607784,45.836049626796964,0 10.910627810521021,45.836092773444008,0 10.910732800303784,45.836133717964088,0 10.910821407508941,45.836172416208662,0 10.910883749132008,45.836197442673949,0 10.91093295795263,45.836215633256266,0 10.910998525324379,45.836231489138271,0 10.91108368901474,45.836238130172532,0 10.911100035410524,45.836233505057322,0 10.911165251196026,45.836182938726481,0 10.911223809463809,45.836111776314119,0 10.911275831488936,45.83604292201705,0 10.91136368661015,45.835939613936475,0 10.911504036338643,45.835856777683873,0 10.911543289176304,45.835849800014138,0 10.911648048384123,45.835847225756225,0 10.911680777282436,45.835844846617938,0 10.911742948816807,45.8358378067703,0 10.911795285879547,45.835828503104281,0 10.911867182449232,45.835803113220834,0 10.911925994722417,45.835780049233144,0 10.911988056719604,45.835752395500826,0 10.91205989229738,45.835715553414417,0 10.912134941046537,45.835667250310053,0 10.91217410850274,45.835644239507033,0 10.912259040182139,45.835607361757354,0 10.912337484430918,45.835581953806653,0 10.912419190521456,45.835554246496955,0 10.912463138068414,45.835535296096047,0</coordinates></LineString>
  </Placemark>
  <Placemark><styleUrl>#Itinerario</styleUrl><name>Percorso Giallo: Vallagarina - Monte Baldo </name><LineString><coordinates>10.912463138068414,45.835535296096047,0 10.912471307805605,45.83553610870397,0 10.912592347427561,45.835550120609888,0 10.91272956615386,45.835603095674244,0 10.91282099425567,45.835649097968194,0 10.912922208996847,45.835701991666269,0 10.913030003079186,45.835748030643515,0 10.913131240108095,45.835796344573019,0 10.913235772365406,45.835840086197386,0 10.913353441131008,45.83587469800721,0 10.913513715608731,45.83589795637549,0 10.913674033961044,45.835912055369519,0 10.913831068304304,45.835928436571983,0 10.913997878485979,45.835953998736763,0 10.914141722206438,45.835990958232983,0 10.914275670297474,45.836043924059723,0 10.914389968807502,45.836099135536791,0 10.914504278443433,45.836152057105274,0 10.914634943196296,45.836207304957945,0 10.914759061886732,45.836262538023476,0 10.914837356493942,45.836317668526753,0 10.914925394579972,45.836388849423436,0 10.915013454645971,45.836455450670591,0 10.915075481786513,45.8364899363634,0 10.915183333496113,45.836524524320907,0 10.915291239667805,45.836547663239735,0 10.915402353928288,45.836584548068856,0 10.91547084092417,45.836637366430949,0 10.915509825941891,45.836699278230476,0 10.915538915464399,45.836777196628823,0 10.915558087768776,45.836875701209621,0 10.915557881494243,45.836919207147915,0 10.915541222341542,45.8369809948965,0 10.915550781386852,45.837035971652639,0 10.915612592416082,45.837116252754704,0 10.915680295621048,45.837150132769999,0 10.915776955541194,45.837211773020229,0 10.915864472631652,45.837267335065803,0 10.915961408843621,45.837348134530629,0 10.916035647451926,45.83741503734911,0 10.916080750270925,45.837461131835923,0 10.916203695677426,45.837553564310348,0 10.916298017916494,45.837593161009025,0 10.916434645494075,45.837649087871434,0 10.916499758630342,45.837672451546162,0 10.916577821263427,45.837705063253829,0 10.916649262868962,45.837742201567529,0 10.916875110892715,45.837952083476097,0 10.916965684716999,45.838021395004283,0 10.917027195295303,45.83806532308423,0 10.917150399624242,45.838141740779591,0 10.917221988460915,45.83816972802834,0 10.917296997638115,45.83818858886719,0 10.917362367719136,45.838195938328155,0 10.917453929743045,45.838203482311251,0 10.917562026322379,45.838200007219868,0 10.917817825291168,45.838186405075774,0 10.917924823539138,45.838200891396134,0 10.918113808866956,45.838276809439733,0 10.918372996019908,45.838458556016008,0 10.918560046797937,45.838671755905246,0 10.918638469004504,45.8387262684384,0 10.91874530655379,45.838739293911082,0 10.918823810045545,45.838744451976218,0 10.918931852747017,45.838745253133361,0 10.919066270095922,45.838734810015282,0 10.919154778132659,45.838728602314532,0 10.919240048607493,45.838720082606891,0 10.919318771023624,45.838711514304983,0 10.919404077927313,45.838700706806279,0 10.919476288730845,45.838689802203888,0 10.919551882955567,45.83867205879946,0 10.91967658735641,45.838654679176642,0 10.919978343666205,45.838622595147669,0 10.920103011359348,45.838607502734433,0 10.920250633507036,45.83859029218258,0 10.920378538610532,45.838577511379974,0 10.920526160582025,45.838560300478846,0 10.920650755102562,45.838549782814596,0 10.920719582147457,45.838545716214441,0 10.920831007711966,45.838539676793665,0 10.920925917525791,45.838542666855176,0 10.921007804153014,45.838540984631067,0 10.921073320728373,45.838539181269773,0 10.921168266962574,45.838539883459745,0 10.921560310849102,45.838595404644792,0 10.921697637371436,45.838607859347668,0 10.921812045862367,45.838620144525983,0 10.922135918491305,45.838638552912009,0 10.922279720523393,45.838655630618817,0 10.922897200992802,45.838742555084018,0 10.922979124142426,45.838738583771232,0 10.923644875522243,45.838672568539252,0 10.92370348102917,45.838693592086585,0 10.923749063114201,45.83870994371339,0 10.923814180432499,45.83873330314858,0 10.923859798885605,45.838747367061096,0 10.923902070743095,45.838765982159885,0 10.923944270033196,45.838789172578359,0 10.923992981111626,45.838814698916103,0 10.924048312868797,45.83883569815,0 10.924084145682166,45.838847401913547,0 10.924136276053373,45.838863801640215,0 10.924227694776878,45.838880490832793,0 10.924316057212186,45.838883429816171,0 10.924394706405629,45.838879433364077,0 10.924460332034551,45.838870765052278,0 10.924552258654481,45.838855426614352,0 10.924677034263389,45.838833466210644,0 10.924746115127471,45.838813383501112,0 10.924802136115719,45.838790916652549,0 10.924881292753559,45.83875489250012,0 10.925009668284487,45.838712366822222,0 10.925131169364986,45.838690381826147,0 10.925272241941244,45.83867311661313,0 10.925367405771008,45.838660089293029,0 10.92546260578678,45.83864477422356,0 10.925544673468179,45.83863165039709,0 10.925594109699563,45.838611422660257,0 10.925623938068256,45.838588762735853,0 10.925703238763244,45.838543587348219,0 10.925789123562938,45.838496172396333,0 10.925855472864857,45.838441749912768,0 10.92594521080745,45.83835775622277,0 10.926038005205637,45.838287512554096,0 10.926203152917722,45.838197209310202,0 10.926381540791688,45.838097851407575,0 10.926540252778322,45.837989318690511,0 10.926670627256049,45.837916787684513,0 10.926908974083862,45.837771705907734,0 10.927042547582872,45.837686475373452,0 10.927223004170662,45.837583858046614,0 10.927398387388346,45.837506218833724,0 10.927544539684401,45.837441519289847,0 10.927689688965415,45.83734779495677,0 10.927775374477145,45.837250925821685,0 10.927859770423936,45.837116739272837,0 10.927933734598312,45.837024216752944,0 10.927997410473083,45.83697750465042,0 10.928097107850228,45.836942630495642,0 10.92820909885714,45.836919994978473,0 10.928307528997049,45.836925199955658,0</coordinates></LineString>
  </Placemark>
  <Placemark><styleUrl>#Itinerario</styleUrl><name>Percorso Giallo: Vallagarina - Monte Baldo </name><LineString><coordinates>10.928307528997049,45.836925199955658,0 10.928387487684194,45.836929428095019,0 10.92852406619151,45.83693126967907,0 10.928624049762925,45.836904687813771,0 10.928718531208876,45.836890645193883,0 10.92885410634959,45.836863461792646,0 10.928982746065509,45.836807353880921,0 10.929110525452851,45.836726367607753,0 10.929185060420876,45.836650429789842,0 10.929327857123615,45.836521497238621,0 10.929416630132176,45.836466775868253,0 10.929558020587034,45.836377846516086,0 10.929719147691253,45.836275230600968,0 10.929880348544931,45.836161169250431,0 10.929988961464042,45.8360767377294,0 10.930100878401058,45.835987735985569,0 10.930176506744363,45.835939849304374,0 10.930242266540059,45.835898805814772,0 10.930288348843868,45.835862292604716,0 10.930347559242637,45.835821233132776,0 10.930383773029996,45.835791563130286,0 10.930436463752347,45.83574590960751,0 10.93049248838153,45.835691107846031,0 10.930541993378544,45.835631712059964,0 10.930641003059993,45.835512920431107,0 10.930717075375616,45.835396362116263,0 10.930816173273334,45.835263836080351,0 10.930905446984957,45.835131286134825,0 10.930981592375538,45.835003282433,0 10.931028014402022,45.834914120946607,0</coordinates></LineString>
  </Placemark>
  <Placemark><styleUrl>#Itinerario</styleUrl><name>Percorso Giallo: Vallagarina - Monte Baldo </name><LineString><coordinates>10.931028014402022,45.834914120946607,0 10.931061189840397,45.8348478181085,0 10.931120798746424,45.834744954089466,0 10.931180392610578,45.834644379085994,0 10.931253128865848,45.834536968666256,0 10.931325805602489,45.834438714376319,0 10.931405060750532,45.834335897818612,0 10.931471173115602,45.834239916618898,0 10.931527417303249,45.834150778728642,0 10.931576949476304,45.83408680443037,0 10.93163621626101,45.834036588153353,0 10.931728316760337,45.833972716815076,0 10.931826788550861,45.833936329761052,0 10.931905554057417,45.833909051292444,0 10.9320368297243,45.833863587062289,0 10.932161570961505,45.833815817820643,0 10.932227134729942,45.833804530794097,0 10.932282845439977,45.833797798095354,0 10.932345134668235,45.833786503097855,0 10.932453340582361,45.83376387348595,0 10.932571355116822,45.833743556512729,0 10.932705771520071,45.833718700812,0 10.932797501444893,45.833712054701891,0 10.932872814662716,45.833712236194764,0 10.932935044680599,45.833710097046662,0 10.933043146999054,45.833703490183865,0 10.933134847372228,45.833701421885905,0 10.933226562476904,45.833697064475707,0 10.933354414747184,45.833674481298019,0 10.933423517651866,45.833621998704565,0 10.933528772189144,45.833549001280289,0 10.933660457718497,45.833439442032571,0 10.933752672596068,45.833357256772807,0 10.933887528736108,45.833263728435035,0 10.934101427032438,45.833099428188916,0 10.934275913230568,45.832953345697895,0 10.934453555480049,45.832825583131694,0 10.934641152293969,45.832677242443893,0 10.934822301972362,45.83251286249623,0 10.934931003001223,45.832412403162387,0 10.935075898007591,45.832284561343442,0 10.935187755297179,45.832202421938554,0 10.935319375805991,45.832102017020652,0 10.935424654306511,45.832024439836609,0 10.935503605664193,45.831967401404739,0 10.935572689799972,45.831917206603741,0 10.935612128749156,45.831894409950571,0 10.935677835870358,45.831860230571841,0 10.935756567246354,45.831837527598921,0 10.935848396044872,45.831814855798349,0 10.936028881408999,45.831753480890335,0 10.936179911679369,45.83168974649292,0 10.936255485136806,45.8316487230516,0 10.93636729557625,45.831573449657945,0 10.936541668886965,45.831443387125873,0 10.93672272141599,45.831292738533058,0 10.936877417841583,45.831167206904901,0 10.937051774118075,45.831039432668966,0 10.937144038372073,45.830948088613127,0 10.937302021781148,45.830820275158189,0 10.937476565337372,45.830662742764581,0 10.937611597987306,45.830539452654179,0 10.937733416456686,45.830434443706544,0 10.937838804850156,45.830338552050371,0 10.937908030334292,45.830265465475662,0 10.938010056575296,45.830183300163426,0 10.938111980757267,45.830117158055437,0 10.938263120446715,45.830035108661939,0 10.938430485753491,45.829975988159092,0 10.938565079054294,45.829921368197375,0 10.938696441375988,45.829859873234106,0 10.938886899535193,45.829773337669074,0 10.939054538873107,45.829670724497213,0 10.939149868898516,45.829611433178485,0 10.939277999066718,45.829543062725065,0 10.939422543542134,45.829467863544721,0 10.939553686642599,45.829440703233779,0 10.939655274677095,45.829427207721587,0 10.93980930822193,45.829404679090125,0 10.939937147812531,45.829382088730867,0 10.940104379212425,45.829343567191309,0 10.940566333776806,45.829298869293027,0 10.940831877636425,45.829246842626247,0 10.941035225295465,45.829192380778458,0 10.941192762398879,45.829133233325862,0 10.941350327971353,45.829069507581572,0 10.941435745454209,45.829023925689263,0 10.941524667393043,45.828941726744517,0 10.941617079194421,45.828825199778962,0 10.941706302791701,45.82869493086293,0 10.941795597920768,45.828553216682543,0 10.941927481154435,45.828370321928773,0 10.941969534390703,45.828260575701862,0 10.941992803989596,45.828138321611171,0 10.941982662305978,45.827963072052697,0 10.941986180933656,45.827924166007023,0 10.941983266340264,45.827866932372729,0 10.941987187652868,45.82776393320794,0 10.941984704527137,45.827638028372668,0 10.941975486218745,45.827541865788099,0 10.941855638709189,45.827335569615201,0 10.941784183991953,45.827243839933665,0 10.941728999240011,45.827168171696712,0 10.94167058373622,45.827085628667341,0 10.941599129652788,45.826993898856152,0 10.941537339642693,45.82692737138764,0 10.941491848149104,45.826872327331145,0 10.941472419735653,45.826837945825979,0 10.941453135385077,45.826780673907948,0 10.941446846529503,45.82673945587424,0 10.94144745154234,45.82664331616742,0 10.941431585414479,45.826563161484884,0 10.941399349051729,45.826482968540496,0 10.941370372433672,45.826405072276522,0 10.941354607358239,45.826308894289916,0 10.941335827689276,45.826171505911773,0 10.941294086670323,45.82604093106189,0 10.941209711474473,45.825921701840208,0 10.941115341559145,45.825829918062368,0 10.941001154786406,45.825765556709186,0 10.940837973555894,45.825682767881737,0 10.940674735046299,45.825609134974613,0 10.940527910314806,45.825528673096592,0 10.940465935428847,45.825491902522138,0 10.940348403831797,45.825438978022866,0 10.940211430896216,45.825353960683401,0 10.940120091736164,45.825301097432558,0 10.940012411756138,45.825243617556438,0 10.939917842382661,45.82518387931902,0 10.939816927894897,45.825092079010886,0 10.93976163218947,45.825034722054447,0 10.939680231723976,45.824963569199689,0 10.939585634222492,45.824908408754098,0 10.939487690505047,45.824864685730432,0 10.93939961229532,45.824814118626421,0 10.939305087796754,45.824747512725075,0 10.939243230560887,45.82469242911818,0 10.9391782445045,45.824614447331484,0 10.939103393288148,45.824543309472766,0 10.939015533535368,45.824458406413939,0 10.938943985698609,45.824382698077848,0 10.938892052611946,45.824311614140505,0 10.938810944636849,45.8241946797597,0 10.938746192074474,45.824080073012531,0 10.938665012140136,45.823974583730951,0 10.938596928143797,45.823869125325473,0 10.93854509768831,45.82378201790295,0 10.938489920846193,45.823706347934078,0 10.938451084563692,45.823635294719999,0 10.938428516092543,45.8235803034976,0 10.938419028674627,45.82352763227594,0 10.938412887828902,45.823463523579122,0 10.938442846852496,45.823385765762517,0 10.938472660483091,45.823330898372753,0 10.938508992746451,45.823280624540637,0 10.938548613335442,45.82322806939181,0 10.938611209013581,45.823166412209709,0 10.938660592918,45.823123036401377,0 10.938713192529306,45.823088824483968,0 10.938746119886149,45.823059144241462,0 10.938834173616117,45.823001149018069,0 10.938926965032426,45.822919339298956,0 10.93895565944622,45.822781784753104,0 10.938938328097588,45.822558090684161,0 10.938900279440229,45.822150877298512,0 10.938931990195297,45.822100192371018,0 10.938983745254856,45.822086847117291,0 10.939135386749042,45.822036563516448,0 10.939458830944471,45.821987611509947,0 10.939731217656769,45.821982986087022,0 10.940127386442128,45.821962885113322,0 10.94023671628015,45.821944312466123,0 10.940446631112405,45.821930717183157,0 10.940597343403734,45.821864637627598,0 10.940690894818921,45.821823578593786,0 10.940766195133996,45.821636406260232,0 10.94075915704083,45.821567694711419,0 10.940761380837303,45.82149410852201,0 10.940792857267628,45.821436740833256,0 10.940886688474651,45.821384999812636,0 10.941511794246585,45.821073496189207,0 10.941747472503678,45.820975882841566,0 10.941997950572928,45.820891389815948,0 10.942218857060475,45.820791298573397,0 10.942347362389597,45.820644303103975,0 10.942417592707747,45.820522979160742,0 10.942472759157498,45.820427677889825,0 10.942771638707669,45.820200950664784,0 10.943227289357978,45.820071650315477,0 10.943574752266651,45.820065735047329,0 10.944017175443864,45.820143997916333,0 10.944472805683308,45.820307830941871,0 10.945389065857182,45.820485262427908,0 10.946202388068496,45.820642992349796,0 10.946718350242255,45.820777188775864,0 10.947067809506176,45.820828426353927,0 10.947332023609778,45.8207810213963,0 10.947471110964941,45.820664253350436,0 10.947485069487074,45.820478122715492,0 10.94739733157793,45.820308026422502,0 10.947321306920838,45.820180629034923,0 10.947339999699897,45.820130262387366,0 10.947410787955459,45.820107605733256,0 10.947771959559107,45.820201539659294,0 10.948114689722026,45.820352984728636,0 10.948429755042207,45.820590697503,0 10.948565601587958,45.8206741750475,0 10.948882658147392,45.820675912468282,0 10.949159584093255,45.820699783162013,0 10.949478138506306,45.820744391494863,0 10.949695244436837,45.820812181139303,0 10.949808157671626,45.820824551982177,0 10.950052929577319,45.820806071563752,0 10.950429304328338,45.820749593691936,0 10.950847805823631,45.820728143492744,0 10.951552202581109,45.820694654970588,0 10.951644678771354,45.820707373395486,0 10.952127119959998,45.820759896932799,0 10.952908437169159,45.820940063017787,0 10.952993062428718,45.820959576595548,0 10.953354486897368,45.821011940332276,0 10.953801907807938,45.820988634682642,0 10.954106993095525,45.820940514611046,0 10.954351761567985,45.820922025260764,0 10.954618623452967,45.820940249296427,0 10.954854020346898,45.82095632405467,0 10.955421603867245,45.821103896350444,0 10.95597200879928,45.821344706478612,0 10.956354642928707,45.821466844168839,0 10.956592450479663,45.821541415067792,0 10.956941672555631,45.821585477000632,0 10.95733453099977,45.821707436140613,0 10.957817362317119,45.821770653921497,0 10.958011536066799,45.821767323728899,0 10.95816748216947,45.82178228352327,0</coordinates></LineString>
  </Placemark>
</Document></kml>
