<?xml version="1.0" encoding="UTF-8"?>
<kml xmlns="http://www.opengis.net/kml/2.2" xmlns:atom="http://www.w3.org/2005/Atom"><Document><name>Parco Locale del Monte Baldo: Percorso Rosso: Polsa - Colme - San Valentino</name><description></description><open>1</open><atom:author><atom:name>Parco Naturale Locale del Monte Baldo</atom:name></atom:author><atom:link href="http://www.parks.it/parco.locale.monte.baldo/iti.php?id_iti=3194"/>
				<Style id="Itinerario">
				  <LineStyle>
					<color>ff0000ff</color>
					<width>4</width>
				  </LineStyle>
				</Style>
				<Placemark><styleUrl>#Itinerario</styleUrl><name>Percorso Rosso: Polsa - Colme - San Valentino</name><LineString><coordinates>10.912089575244874,45.783096294310191,0 10.911600551585487,45.78299647663907,0 10.911347697500576,45.782937706106878,0 10.910907195577595,45.782846073689178,0 10.910759877481359,45.782817037371423,0 10.910190729655145,45.782678052047821,0 10.909418552869118,45.782479455662923,0 10.909298709821693,45.782454458229445,0 10.909174199368929,45.782434039006489,0 10.909026575968374,45.782396004982807,0 10.908880713396863,45.782362441614552,0 10.90873339754782,45.782333402640731,0 10.908587688146135,45.782304336412111,0 10.908440677392983,45.782284291882533,0 10.908295427404878,45.782268718042296,0 10.908052607509077,45.782268275233477,0 10.907907132740375,45.782293207350797,0 10.907750490494232,45.782367829152641,0 10.907580530641962,45.782429172304163,0 10.90747201778909,45.782453486425901,0</coordinates></LineString></Placemark>
<Placemark><styleUrl>#Itinerario</styleUrl><name>Percorso Rosso: Polsa - Colme - San Valentino</name><LineString><coordinates>10.907472019460767,45.782453486474935,0 10.907332817536915,45.782473812749707,0 10.907159715459469,45.782490204502594,0 10.907102064027645,45.782515427885919,0</coordinates></LineString></Placemark>
<Placemark><styleUrl>#Itinerario</styleUrl><name>Percorso Rosso: Polsa - Colme - San Valentino</name><LineString><coordinates>10.913250029667939,45.781578257181579,0 10.91310044207377,45.781670769691075,0 10.912974035705895,45.781735891848307,0 10.912621740567545,45.781872302695845,0 10.912489674530459,45.781960020569457,0 10.912415461105269,45.782046769211895,0 10.91236244660297,45.782142163286245,0 10.912329092345125,45.782201225725672,0 10.912323758752358,45.782327323111858,0 10.91235362614111,45.782448330580728,0 10.912378432962445,45.782515419358354,0 10.912410215405195,45.782645395304542,0 10.912386127232617,45.782740304833219,0 10.912282301950583,45.782854551116728,0 10.912151771784728,45.782987245727909,0 10.912089575244874,45.783096294310191,0</coordinates></LineString></Placemark>
<Placemark><styleUrl>#Itinerario</styleUrl><name>Percorso Rosso: Polsa - Colme - San Valentino</name><LineString><coordinates>10.946590058574598,45.782846314613487,0 10.946126973580045,45.78275147827987,0 10.945442803799356,45.782686363885325,0 10.945081135581441,45.782654138831951,0 10.944593188862308,45.78237179680054,0 10.944064931541535,45.782057232726473,0 10.943385356157872,45.78189879525965,0 10.942467164942469,45.781640216418459,0 10.941815691885227,45.781388062521572,0 10.941199770617253,45.781031103521059,0 10.940931515069162,45.781205669535204,0 10.940818398315448,45.78133372563245,0 10.940693828944418,45.78135777908097,0 10.940471261723051,45.781268332678522,0 10.940347289272468,45.781083981536419,0 10.940254269305338,45.780888136218081,0 10.939892639631656,45.780631045921808,0 10.93969033969899,45.780448024642872,0 10.939525873980257,45.780225972068592,0 10.939352624367,45.779976648021041,0 10.939119377135039,45.779805119424402,0 10.938871226850496,45.779655779784605,0 10.938731787628335,45.77947717362688,0 10.938604400753752,45.779194165448644,0 10.938582837449015,45.779024525714185,0 10.938474351679892,45.77883442550992,0 10.93836681774971,45.778671729355075,0 10.938302096887915,45.77838765697409,0 10.938262206514482,45.778141551456891,0 10.938326044284381,45.777948525746432,0 10.93836885556823,45.777827149493298,0 10.938309842280701,45.777707502123988,0 10.938092653568315,45.777546667075399,0 10.937621595099873,45.777296911600956,0 10.937252564007771,45.777050908437182,0 10.937057558761529,45.77685130780668,0 10.936689909585418,45.776418822116277,0 10.936292835535072,45.776041674587802,0 10.936035748208944,45.775859577282212,0 10.93583115956117,45.775835626343209,0 10.935536378650239,45.775922884953701,0 10.935386183287825,45.776111888568295,0 10.934890494030459,45.776734502912426,0 10.93474471274296,45.77682471809981,0 10.934558062000731,45.776866269449371,0 10.934010738663927,45.776902962733864,0 10.933635159988212,45.776920292705739,0 10.933518810492087,45.77695516750385,0 10.93343164472526,45.777154069038112,0 10.933102682548666,45.777839659998484,0 10.932930492053226,45.778072905202265,0 10.932648643271019,45.778308006103558,0 10.932172869376544,45.778601229556685,0 10.931650093825118,45.778895245838996,0 10.931366341923587,45.779075535537146,0 10.931185171751135,45.779276025420558,0 10.931043353810633,45.779481333523663,0 10.930967486684914,45.779553909525042,0 10.930691940536908,45.779745026775103,0 10.930177357725613,45.780049865732515,0 10.930010332136394,45.780206242423269,0 10.929967876229259,45.780338577019357,0 10.929962428609961,45.780634806971989,0 10.929905062927626,45.780789329656997,0 10.92978484390351,45.780939430628493,0 10.929585914571055,45.781079893997564,0 10.929503156488403,45.781180005243101,0 10.929424749362022,45.781406175624596,0 10.92934009874838,45.78145147876527,0 10.929283753584125,45.781408558382921,0 10.929279591811159,45.781287980105702,0 10.929256358625562,45.781069011143266,0 10.92911797820001,45.780692951495482,0 10.92907011270475,45.780441494800385,0 10.929086802126582,45.78024378748578,0 10.92915548459667,45.779962941001827,0 10.929411020760803,45.779646032673092,0 10.929782153686942,45.77927232965218,0 10.930115063796512,45.778926691598322,0 10.93027811138767,45.778655217234814,0 10.93034217070908,45.77846767690172,0 10.930342433568404,45.778248310891065,0 10.930335620426279,45.778051000866959,0 10.930417426246764,45.777923484800368,0 10.93059284431,45.777783417595657,0 10.930836861589942,45.777587349606662,0 10.931121814113531,45.777215099494057,0 10.93115662154208,45.777088377576959,0 10.931010785483489,45.776723413931464,0 10.930849475647323,45.776364195808576,0 10.930541580346111,45.775618089404809,0 10.93050570949188,45.775487079000918,0 10.93051198408082,45.774987925371995,0 10.930513192045616,45.774795963463781,0 10.930685950293869,45.774579164576842,0 10.930932792939537,45.774465308984503,0 10.931256063148401,45.774295319765749,0 10.931822003372563,45.773890893841056,0 10.932204390571016,45.773390859072094,0 10.932230415546707,45.77323686542789,0 10.932211976199076,45.772930071195312,0 10.932286317703134,45.772813648085183,0 10.932447946235744,45.772728651733189,0 10.932547866727536,45.772672119953278,0 10.932600416214997,45.772605421901531,0 10.932754654375204,45.772306672384445,0 10.932815793049871,45.772261765116632,0 10.933081127221392,45.772229852469636,0 10.933235110439702,45.772150468495205,0 10.933434188268482,45.772015480154252,0 10.933588359922956,45.771941576643215,0 10.933822365159335,45.771910192877179,0 10.934291701374594,45.771885789833426,0 10.934510421427008,45.771865631577263,0 10.934702991359204,45.77176913968615,0 10.934863284950943,45.771645774249023,0 10.935043090222683,45.771406912883691,0 10.935047318285768,45.771302644391213,0 10.934989841042038,45.771226842103971,0 10.934902176003341,45.771184455480189,0 10.934578612846234,45.771118646299769,0 10.934272609887575,45.771107379164604,0 10.933865744203503,45.771125239924196,0 10.933500499627385,45.771213686909036,0 10.93326536011908,45.771212184963474,0 10.933053147561203,45.771193842253403,0 10.93282205087753,45.771082590029231,0 10.932643314186143,45.770899158463401,0 10.932510620713424,45.770687526985625,0 10.932528811822619,45.770533665816195,0 10.932577760982589,45.770362831887837,0 10.932590392649871,45.770274873357131,0 10.932622163346698,45.770060457711295,0 10.932805761344124,45.769931216595609,0 10.933020685764829,45.769801444775723,0 10.933157862480662,45.769689441051987,0 10.933231629471623,45.769556574827853,0 10.93325537578008,45.769336811044276,0 10.933229860442468,45.769052072777626,0 10.933146809458604,45.768916377963045,0 10.932753477546978,45.768418505447102,0 10.932701754831269,45.768282279916356,0 10.932713629159476,45.768172397963383,0 10.932784553925371,45.767957319479336,0 10.932927916178683,45.767571008999354,0 10.933163545508974,45.767133779753493,0 10.933255245308798,45.767066418375897,0 10.933801336530955,45.766996844946952,0 10.933986059445044,45.766900487094681,0 10.934059631440007,45.766762139543502,0 10.934061776300366,45.766597581857916,0 10.934025903419293,45.766466572407062,0 10.933887469495113,45.766315364194938,0 10.93365468618175,45.76615478571776,0 10.933382938999371,45.766000350739915,0 10.933210658734753,45.766003268186118,0 10.932799029250363,45.766108950702112,0 10.932595045490693,45.766101435836909,0 10.932303406505598,45.766051531878617,0 10.932080542900279,45.765951106877651,0 10.931875613456574,45.765916186521011,0 10.931596987970323,45.765789283905562,0 10.931283373065229,45.76578362155275,0 10.930972217938715,45.765849209356361,0 10.930584456075064,45.765965448237765,0 10.930374912367153,45.766023832011705,0 10.930252076578064,45.766097201558082,0 10.930032620632677,45.766095427765897,0 10.929889393758708,45.766032040471238,0 10.929648602854829,45.765866105186511,0 10.929466411451717,45.765808859989207,0 10.929018725650327,45.765778037006164,0 10.928650861434154,45.765789736200546,0 10.928418957508239,45.765881398409853,0 10.928155728980107,45.765973589196932,0 10.927793719872534,45.766155192179625,0 10.927391608794862,45.766310050595408,0 10.926992416339875,45.766322273267924,0 10.926883915014992,45.766357008905764,0 10.926809004101813,45.766456986101453,0 10.926829020536053,45.767037957173507,0 10.926869509697786,45.767530837755068,0 10.926808282297777,45.767800589531049,0 10.92673082507253,45.768054162758979,0 10.926793953094933,45.768294395257286,0 10.927285827916188,45.768697396218435,0 10.927686651763386,45.768959347109131,0 10.928349696621366,45.769326548722006,0 10.928629467063876,45.769486344285994,0 10.928746668842564,45.769703725833409,0 10.928834058068009,45.769965483169074,0 10.928894550686097,45.770128983010189,0 10.928835679104051,45.770239658002467,0 10.928619420726426,45.770331055954045,0 10.928293141035729,45.770413344214539,0 10.928232756318071,45.77048017266096,0 10.928236536267093,45.770589789568575,0 10.92836686340781,45.770960503173008,0 10.928537673203348,45.77136892105171,0 10.928579586337863,45.771675319346386,0 10.928515338477686,45.771857378475261,0 10.928354651938951,45.771969773245083,0 10.927958443135976,45.772069693423973,0 10.927715657130104,45.772073793194693,0 10.927611576441709,45.772009742271379,0 10.927541553612828,45.771797046794241,0 10.927465021669784,45.771622849661902,0 10.92737452741782,45.77149824453091,0 10.927208738542824,45.77146265523379,0 10.926950291970364,45.771467017741813,0 10.926591165476857,45.771505982676423,0 10.92612371602733,45.771585163008851,0 10.925920656966504,45.77160504068231,0 10.925722316572553,45.771761939580813,0 10.925524825584818,45.772171089608378,0 10.925421030413201,45.772342845500127,0 10.925283925874659,45.77268516832924,0 10.925187583977278,45.772845830038435,0 10.925028396834898,45.773002067436323,0 10.924812776622035,45.773795404804524,0 10.924692935224769,45.773956462469876,0 10.92450760633573,45.774036363283692,0 10.923991818894066,45.774113619259381,0 10.92388027074141,45.774234572010876,0 10.923898624254642,45.774372388403307,0 10.924036386798313,45.774617741172911,0 10.924007778163961,45.774775400435693,0 10.923820418296506,45.774869052470933,0 10.923120450558478,45.774717823064108,0 10.922927953623642,45.774589448530513,0 10.922278389365836,45.773931334728815,0 10.92211609477263,45.773769546027452,0 10.921823105632804,45.773681249858825,0 10.921492087259773,45.773626497144811,0 10.921343843272451,45.773645444178321,0 10.921192287194961,45.77379606385162,0 10.921071117011584,45.773918751584411,0 10.920839166357398,45.774010399089313,0 10.920779522622206,45.774099147274882,0 10.920762315669542,45.774510739466599,0 10.920800611557038,45.774713004749614,0 10.92077030032711,45.774971264533804,0 10.920658088540833,45.775126705430523,0 10.920407154213976,45.775350288256767,0 10.920357034585345,45.775488232403482,0 10.920383994897286,45.775816821077882,0 10.920404366517241,45.775953579271636,0 10.920315084360414,45.776092182352549,0 10.92009227371601,45.776222062707575,0 10.919843706660814,45.776286567074791,0 10.919565126671234,45.776389964427601,0 10.919396199768643,45.776491516777078,0 10.919176019801858,45.776698128035747,0 10.918865422526498,45.777010454892817,0 10.918736595695652,45.777138752893734,0 10.918693926499724,45.777265602796597,0 10.918722314866359,45.777407710438737,0 10.918830534890697,45.777592348925211,0 10.918829286766334,45.777784311138852,0 10.918684604887446,45.777907391629178,0 10.918382140081819,45.778000219213531,0 10.917605640359945,45.778210689546022,0 10.917124147170563,45.778339424624185,0 10.916835839608799,45.778388137998782,0 10.916537443808997,45.778371211552191,0 10.916118927046801,45.778279523754662,0 10.915612561386641,45.778139952415835,0 10.91459538372543,45.777959590124389,0 10.914288970350032,45.777937308132245,0 10.914189022140024,45.777993824382015,0 10.914064873896104,45.778259139223337,0 10.914000384240284,45.778435709663881,0 10.913915725058633,45.778481001094619,0 10.913052360734525,45.778731199782143,0 10.912891364023931,45.778777854865233,0 10.91278358004314,45.778834500953067,0 10.912739771353177,45.778928463777113,0 10.912768145613953,45.779070573085583,0 10.912965556897021,45.779571796824555,0 10.912969209741176,45.780136591043664,0 10.913075960985994,45.780507716308591,0 10.91318083782466,45.780824032907745,0 10.913440173236674,45.781302281477302,0 10.913494490349331,45.781515248067855,0 10.913250029667939,45.781578257181579,0</coordinates></LineString></Placemark>
<Placemark><styleUrl>#Itinerario</styleUrl><name>Percorso Rosso: Polsa - Colme - San Valentino</name><LineString><coordinates>10.946652529355211,45.782799625883193,0 10.946144096973917,45.782565022063658,0 10.945734920637113,45.782474343962079,0 10.945400283827665,45.782338007120472,0 10.945125648332102,45.782102990901571,0 10.944656172280277,45.781738127919915,0 10.944053411781706,45.781189102520891,0 10.94386847500285,45.78097918865145,0 10.943694984670934,45.780733568595544,0 10.943480367578399,45.780399872416403,0 10.943137717364884,45.78003284437348,0 10.942988976209547,45.779769047204418,0 10.943096922508804,45.779589658194787,0 10.943286707503653,45.779466241982803,0 10.94349774277326,45.779440794481708,0 10.944330279988364,45.779666316652524,0 10.945344670871915,45.780013020862611,0 10.946370827325993,45.780332882905036,0 10.947021225684788,45.780428325715462,0 10.947618740179504,45.780462523588888,0 10.947689375946236,45.780439263616323,0</coordinates></LineString></Placemark>
<Placemark><styleUrl>#Itinerario</styleUrl><name>Percorso Rosso: Polsa - Colme - San Valentino</name><LineString><coordinates>10.947689375946236,45.780439263616323,0 10.948045223718422,45.780322083938785,0 10.948226759638084,45.780070413518168,0 10.948331285052502,45.779793424277315,0 10.948454060274347,45.779675920101333,0 10.948682300706659,45.77967202510672,0 10.949014456614913,45.77973737664972,0 10.949332075987565,45.779749710211185,0 10.949647836108154,45.779708808415137,0 10.949870810576181,45.779554081432529,0 10.950098408288323,45.779168457216336,0 10.950226733778836,45.778846671421647,0 10.950347643981198,45.778675931499301,0 10.950529474166167,45.778433129902588,0 10.950509048059407,45.778211538376397,0 10.950448105078459,45.777919618219848,0 10.950472511574523,45.777528586084216,0 10.950465790390076,45.777291908046337,0 10.950472704055754,45.77728699285354,0</coordinates></LineString></Placemark>
<Placemark><styleUrl>#Itinerario</styleUrl><name>Percorso Rosso: Polsa - Colme - San Valentino</name><LineString><coordinates>10.950472704055754,45.77728699285354,0 10.950462398031,45.777188145438352,0 10.950452221579313,45.776972643637876,0 10.950650438375556,45.776492911813449,0 10.950874431221127,45.776238376686734,0 10.951170034978041,45.775982617432085,0 10.951404048492652,45.775502272509961,0 10.951595292036439,45.775336043531716,0 10.951987844991415,45.775291727118557,0 10.952092636067835,45.775214723125863,0 10.952159431783436,45.775075691555188,0 10.952042820275139,45.774814441411799,0 10.951908307119059,45.774553497165613,0 10.951994318644855,45.774451743443962,0 10.952763259941579,45.774413524626794,0 10.953030048514368,45.774358819971624,0 10.95334397326225,45.774115277040082,0 10.953564877614046,45.773773041411317,0 10.953687066246122,45.773169250585624,0 10.953755546121098,45.772566378587662,0 10.953916163383084,45.772037142386196,0 10.954089924141705,45.771883743712863,0 10.954339235725662,45.771841870489453,0 10.954629610675317,45.771949718870665,0 10.954924809207826,45.772195373590144,0 10.955250114149921,45.772277551497133,0 10.955576297130778,45.772384784283119,0 10.955940478673041,45.772554042344218,0 10.956480173594466,45.772620008608079,0 10.956998017686161,45.772573528016757,0 10.957350791698014,45.772417056082965,0 10.957540251011148,45.77220070592503,0 10.957776389820269,45.771782988284102,0 10.957973209211811,45.771265660968581,0 10.958292700631818,45.770671016856603,0 10.958480833018886,45.770417081548331,0 10.958968892764346,45.770032646279994,0 10.959528550283579,45.769646980189833,0 10.959882617199908,45.769528084439166,0 10.960223177087006,45.769534773769919,0 10.96052661600142,45.769504493178225,0 10.960829175192865,45.769449156027818,0 10.961255721515476,45.769354082160682,0 10.961506335517008,45.769349777168934,0 10.961831192906093,45.769419408603994,0 10.962249516309704,45.769600251778577,0 10.962524633397457,45.769783554903164,0 10.962838635668019,45.770053936920398,0 10.963110675441477,45.770149543520191,0 10.963485720754447,45.770118023920681,0 10.963700095071628,45.770101801863284,0 10.964071175865961,45.769957529652039,0 10.964512537619608,45.769774440761438,0 10.965061302672593,45.769589501793142,0 10.965400981603207,45.769571119973079,0 10.965734474761856,45.769499914785087,0 10.965949955059065,45.769434287494022,0 10.966008661009266,45.76936183262552,0 10.965992380853459,45.769285905556998,0 10.965789109617418,45.769117937916718,0 10.965481473239532,45.768885084571018,0 10.96500675468296,45.768545557104517,0 10.964830695474816,45.768377119563588,0 10.964661104552036,45.768199044567417,0 10.964534162823208,45.768072628263155,0 10.964395958732148,45.76801308692707,0 10.96424482040899,45.767972819697931,0 10.963992829032632,45.767967627271297,0 10.963414196439501,45.767963287021011,0 10.962898448019182,45.768005492683422,0 10.962531665080114,45.768026084599029,0 10.962014412726983,45.768025445491638,0 10.961571643650883,45.768013998925497,0 10.961393301013192,45.767974195143225,0 10.961111433489826,45.76789330209985,0 10.960892449141681,45.767858958328269,0 10.960763386653666,45.767865937047979,0 10.960573944347908,45.767897766898649,0 10.960104173719587,45.7680868223446,0 10.959755494571812,45.768235694480971,0 10.959654471167136,45.768266005611501,0 10.959551780224716,45.768248715693019,0 10.959173691329648,45.768140890951123,0 10.958554048996721,45.767937185322168,0 10.958215606961609,45.767795336824683,0 10.957805986097574,45.767564211278994,0 10.957529094841579,45.767430831556418,0 10.957350090543891,45.767371980967091,0 10.957042024780771,45.767320104591903,0 10.956856053333986,45.767256609651675,0 10.956626276652248,45.767108131622848,0 10.956214336987273,45.766810358665609,0 10.955982400255591,45.766599997877535,0 10.955733700780387,45.766299427447869,0 10.955585713701456,45.76615430971011,0 10.955461625432465,45.766108804728802,0 10.95535247103793,45.766101147608516,0 10.955257085737848,45.766098017624884,0 10.955175303150227,45.766094654702464,0 10.955065150724476,45.766058436643014,0 10.954760402738843,45.765906475189745,0 10.954566805666202,45.765819292232031,0 10.954396107464767,45.76580316148226,0 10.953986698156498,45.765772062817526,0 10.953802563843952,45.765760924005804,0 10.953610298498678,45.765711820311104,0 10.953425333407345,45.765676880309357,0 10.95329577614762,45.765669570177174,0 10.953215489955218,45.76570904688451,0 10.953129399420018,45.765777200543475,0 10.953059736334612,45.765926043516323,0 10.952970333494077,45.766094275813167,0 10.952693315930965,45.766346686100867,0 10.952614191333947,45.766419483224794,0 10.952564265831867,45.766548936608615,0 10.952419950662629,45.766703818337319,0 10.952300514884987,45.766791593203102,0 10.952131973584761,45.76683734064558,0 10.951928262094444,45.766850348206745,0 10.951784268969718,45.766819468281291,0 10.951596146150962,45.766694083088908,0 10.951331880229148,45.766531894850552,0 10.951145087521942,45.766444589847247,0 10.95106230851799,45.766412663253533,0 10.95097389021705,45.766414173633081,0 10.950906540120341,45.766434375905924,0 10.950834380447308,45.766511815780738,0 10.950784782699658,45.766650788697412,0 10.950767366135759,45.766736819407811,0 10.950714282405542,45.766775829724885,0 10.950687408552792,45.766785814629429,0 10.950592520131384,45.766796961132592,0 10.950437414300323,45.766837713655981,0 10.950331412059064,45.766920494092368,0 10.950274513397389,45.767045302577088,0 10.950227234867969,45.767055635794542,0 10.950145285126068,45.767047509164286,0 10.950039778345589,45.76694928849529,0 10.949815826618435,45.766772119567221,0 10.949744659963123,45.766682838288602,0 10.94966934638018,45.766669835072932,0 10.949581591140506,45.766690384884157,0 10.949468952296801,45.766778040761878,0 10.949372238200198,45.766932106128756,0 10.949295430481998,45.767071542795996,0 10.949217129675358,45.767168138277142,0 10.949157740485722,45.767221544348558,0 10.949052233134159,45.767318604014527,0 10.949001137721067,45.767414735080877,0 10.948950373809796,45.767520386379402,0 10.948961652974379,45.7676487937402,0 10.948950703238523,45.767725187893056,0 10.948911220459038,45.767763965275272,0 10.948824126527116,45.76780355504048,0 10.948729235963272,45.767814700027465,0 10.948544432465269,45.767784512322784,0 10.948416031316659,45.767810517621335,0 10.948322466926916,45.767859743297677,0 10.94822392431692,45.767961446333672,0 10.948150262046763,45.76819132471757,0 10.948112601847438,45.768282463249186,0 10.947986022695666,45.768360829499834,0 10.947623373573919,45.768500376888809,0 10.946962598722822,45.7688736274199,0 10.946783259344251,45.769000521253062,0 10.946722871966314,45.769025365320239,0 10.946661159330201,45.76901212829965,0 10.946632130239454,45.768960230557312,0 10.94665817763131,45.768926445921281,0 10.946783931647262,45.768824280439546,0 10.946883141055341,45.768741619120526,0 10.946961282385047,45.768640265032474,0 10.947083390176568,45.768433376342173,0 10.947246141250682,45.768221031632727,0 10.947462475473447,45.767983958267074,0 10.947594364636332,45.767862635438235,0 10.947612449286462,45.767795645664791,0 10.947583585711165,45.767748508288435,0 10.947521874305567,45.767735271710677,0 10.947455184162189,45.767774512512631,0 10.947302724386315,45.767891422948964,0 10.947147281631027,45.767922650821234,0 10.946950035014947,45.767926013362491,0 10.946800068315978,45.767919043763619,0 10.946655412464761,45.767869116843642,0 10.946578110288293,45.767798990007542,0 10.946561194406533,45.767704019181139,0 10.946563523863791,45.767575379655916,0 10.94664647809355,45.767416788257897,0 10.946690776054657,45.767320774107056,0 10.946674025794712,45.767230563424121,0 10.946630732085969,45.767159856967695,0 10.946499847011689,45.767114458096792,0 10.946387544891518,45.767016349867937,0 10.94632185992854,45.766888869390002,0 10.946308434132634,45.766698579896804,0 10.946251219002594,45.766423303362906,0 10.946177408928339,45.766257857586709,0 10.946040234258646,45.766031572971585,0 10.945967253224946,45.765889927713175,0 10.945944034420988,45.765809353030498,0 10.945868722821585,45.765796347272996,0 10.945659701853213,45.765852300726735,0 10.945457481824743,45.765908137953275,0 10.945274672423258,45.765935066477113,0 10.945166677979579,45.765960720563243,0 10.945046570134025,45.766029447455395,0 10.944653065076441,45.766260007122064,0 10.944386137124704,45.766412203316129,0 10.94405733296694,45.76654640027747,0 10.943438875144833,45.766766495607698,0 10.942975689829817,45.766950605530553,0 10.942492427403817,45.767144580941746,0 10.942040360155648,45.767257053616042,0 10.941620977151112,45.767330865223308,0 10.941479631239675,45.767376134601385,0 10.941057934235181,45.767383302084767,0 10.940738590867713,45.767398254763393,0 10.940301309168209,45.767348528792567,0 10.939944326362152,45.767259333635643,0 10.939579387855721,45.767136931771461,0 10.939350316461342,45.767007458846038,0 10.939172688202301,45.766791378831343,0 10.939008169330046,45.766560787107146,0 10.938893241654863,45.766386508773024,0 10.93877349283736,45.766269467640626,0 10.938614255563881,45.766191200301577,0 10.938401926804492,45.766151937458716,0 10.938211321919384,45.766150409224551,0 10.938062350114214,45.766171989005528,0 10.93794173817065,45.766226428093908,0 10.937834563995839,45.766275876103677,0 10.937706325784855,45.766306629550371,0 10.937645937086252,45.76633146884668,0 10.937620379938263,45.766379531989202,0 10.937656035918854,45.766426556653791,0 10.937724710051,45.766444443394818,0 10.937812139798282,45.766414382312114,0 10.937925126358001,45.766336257962713,0 10.938072284711843,45.766262316608753,0 10.938199862949048,45.766212522122537,0 10.93834252815034,45.766205338063436,0 10.938487172576124,45.766255275716624,0 10.938633136870967,45.766343294437995,0 10.93869863881589,45.766466019486245,0 10.938700948237003,45.766532661679548,0 10.938661294093675,45.766566675469797,0 10.938605562674317,45.76652951778393,0 10.938499417049234,45.766412245472992,0 10.938430907659738,45.766399119358631,0 10.938343478284187,45.766429180909405,0 10.938257368179729,45.766497323658044,0 10.938057116872269,45.766610269827716,0 10.937876444798109,45.766699068660714,0 10.937788849764569,45.766724369638801,0 10.937666093032654,45.766716926385065,0 10.937570542321296,45.76670902146958,0 10.937502692197612,45.766714935440405,0 10.937354707666163,45.766765075285008,0 10.937072670475558,45.76687464402562,0 10.93696483502845,45.766905050602006,0 10.936862647355674,45.766902020606629,0 10.93677971068062,45.766865323379768,0 10.936716354702034,45.76680447928495,0 10.936657658146592,45.766681637714356,0 10.936652879369857,45.766543593006915,0 10.936616894581567,45.766487047692571,0 10.936518872789335,45.766407739447459,0 10.936372087763116,45.766295917156768,0 10.936273901904245,45.766211848524293,0 10.936189978179966,45.76614658985887,0 10.936039687674876,45.76613008569975,0 10.935869816533698,45.766137728009937,0 10.935761322975726,45.766149092780935,0 10.935667420441245,45.766188787905783,0 10.935461022110216,45.766320885526532,0 10.935262082942508,45.766471908207542,0 10.934881148599237,45.766673643390533,0 10.934672935816966,45.766753377792845,0 10.934476844071424,45.76679003991169,0 10.934340319889676,45.766778063306973,0 10.934208786920154,45.766713609495014,0 10.934061776300366,45.766597581857916,0</coordinates></LineString></Placemark>
<Placemark><styleUrl>#Itinerario</styleUrl><name>Percorso Rosso: Polsa - Colme - San Valentino</name><LineString><coordinates>10.918684927172755,45.788479809490831,0 10.918944210250082,45.788801394558384,0 10.91910207489267,45.789036889133584,0 10.919230331993582,45.789401480325047,0 10.919255054279553,45.789724944702321,0 10.919278572734116,45.789815045330343,0 10.919216085693805,45.789978035214361,0 10.919052512514153,45.790171301148895,0 10.91871784659854,45.790338863490298,0 10.918158467821955,45.790505435922668,0 10.917726737856015,45.790622233073236,0 10.917334078945409,45.790808817209729,0 10.917060800682055,45.79098080628421,0 10.91679230174339,45.791292216136675,0 10.916534536963091,45.7915290443527,0 10.916197049687094,45.791767209479659,0 10.915967128198194,45.792040769705679,0 10.915720506421955,45.79260291289868,0 10.915508644351242,45.793015670862232,0 10.915282536590329,45.793400766965718,0 10.915122543346593,45.793775453954041,0 10.914961390844224,45.79426287228754,0</coordinates></LineString></Placemark>
<Placemark><styleUrl>#Itinerario</styleUrl><name>Percorso Rosso: Polsa - Colme - San Valentino</name><LineString><coordinates>10.918235511106509,45.787953448961872,0 10.918319210498733,45.787975256205215,0 10.91854630741711,45.788308037141164,0 10.918684927172755,45.788479809490831,0</coordinates></LineString></Placemark>
<Placemark><styleUrl>#Itinerario</styleUrl><name>Percorso Rosso: Polsa - Colme - San Valentino</name><LineString><coordinates>10.925128152131494,45.784971716739548,0 10.925044496069228,45.78496825626253,0 10.924866707264904,45.784859231795757,0 10.924794452390861,45.784782521928626,0 10.92471423494114,45.784676723369195,0 10.924629909076073,45.784653791991175,0 10.92454742641455,45.784684404675289,0 10.924499140092815,45.784899519011091,0 10.924531486278722,45.785434725769491,0 10.924555207147726,45.785517124073976,0 10.924619667381933,45.785569613076454,0 10.924838700017151,45.785663331453392,0 10.925042309973454,45.78571347511501,0 10.925266122185059,45.785743796000197,0 10.925394206427926,45.785824434908413,0 10.925524470493613,45.785968353036587,0 10.925606870951997,45.786137430315698,0 10.925647191385771,45.786297476049143,0 10.925678184820692,45.78644947809542,0 10.92566670846321,45.786511589816129,0 10.925619408707929,45.786521913148306,0 10.925543745429785,45.78649937404834,0 10.925356678516009,45.786207225245647,0 10.925312904223439,45.786122230200043,0 10.925196418176572,45.786100378995492,0 10.925130018285088,45.78614912759754,0 10.925140100550825,45.786244216482352,0 10.925191498232758,45.786352897801279,0 10.925218139215092,45.786533440504833,0 10.925198627860627,45.786757627598469,0 10.925224285526294,45.786909609220359,0 10.925185428613139,45.786967419465768,0 10.925144604546519,45.786968107567922,0 10.925061317253942,45.786921881950107,0 10.925022379870528,45.786779649991495,0 10.925022463512738,45.786584368011852,0 10.924972541076578,45.786518528225351,0 10.924883925731379,45.786515258740174,0 10.92481768897291,45.786568767348236,0 10.924828426383279,45.786682896976174,0 10.924832195958357,45.786792381085405,0 10.924718082281565,45.787037214084172,0 10.924681519131374,45.787161666668453,0 10.924697749377552,45.787237600215491,0 10.924775871737198,45.787331542537963,0 10.924908099095617,45.78741504710419,0 10.924931625531622,45.787505146472405,0 10.924832842351984,45.787602070048806,0 10.924586662895118,45.787768158452501,0 10.924541328381933,45.787835603498273,0 10.924556739274117,45.7878877361644,0 10.924625436061573,45.78790563036479,0 10.924747418665023,45.787889286004791,0 10.92487636922041,45.787877587025143,0 10.925115169199804,45.787892614095753,0 10.925315603682463,45.787979731482615,0 10.925711802058967,45.788215962160699,0 10.92578328733428,45.788314778623047,0 10.925758366401286,45.78838187995833,0 10.92563236640661,45.788479263098623,0 10.925461359876891,45.788653611850535,0 10.925265594496642,45.788899821769135,0 10.924938739699886,45.789491172294483,0 10.924786253893579,45.789808096019733,0 10.924717634256497,45.789990244028871,0 10.924663854806106,45.790010202024497,0 10.924602779248781,45.790015994122037,0 10.924538917574676,45.789940863182217,0 10.924154354006523,45.789647277224574,0 10.923088397502157,45.788941263105706,0 10.922794923086217,45.788722345847901,0 10.922536617981248,45.788536176431073,0 10.922207490120948,45.788270228381634,0 10.921713688124171,45.787768903164277,0 10.921358757558478,45.787346209754929,0 10.921203996691911,45.787201161889278,0 10.92100242621801,45.787080715804471,0 10.920855943059644,45.786978394702551,0 10.920644626419321,45.786772378963704,0 10.920427061746034,45.786780800199573,0 10.920143745844848,45.786857007567853,0</coordinates></LineString></Placemark>
<Placemark><styleUrl>#Itinerario</styleUrl><name>Percorso Rosso: Polsa - Colme - San Valentino</name><LineString><coordinates>10.918235511106509,45.787953448961872,0 10.918188330556452,45.787804348342824,0 10.91829175017279,45.787445390985098,0 10.91846484260444,45.787132892666641,0 10.918628899397294,45.786953908173125,0 10.91888238764828,45.786801998642133,0 10.919170711560534,45.786673317913923,0 10.919481734214573,45.786610936157352,0 10.919706265874748,45.786607162565886,0 10.919933249646514,45.786674791419806,0 10.920080384302713,45.786796154517617,0 10.920143745844848,45.786857007567853,0</coordinates></LineString></Placemark>
<Placemark><styleUrl>#Itinerario</styleUrl><name>Percorso Rosso: Polsa - Colme - San Valentino</name><LineString><coordinates>10.925524825584818,45.772171089608378,0 10.925529816313817,45.772648567392345,0 10.925440503129627,45.773093749952075,0 10.925446894034163,45.773279397295063,0 10.925504998482504,45.773583246593425,0 10.925595968504194,45.773853201109873,0 10.925607031986361,45.773976851293355,0 10.925558348484861,45.774144375313455,0 10.925508434208187,45.774473860353822,0 10.925520480968606,45.774626071655447,0 10.925627516430579,45.774967199504353,0 10.925747338908323,45.775284296893339,0 10.925875194888548,45.775834643181597,0 10.925916011297266,45.776229279682042,0 10.925872490466796,45.776349087238373,0 10.925521981532835,45.776597603489186,0 10.925135108076292,45.776682052622597,0 10.924850903312665,45.776716065468484,0 10.924643553080854,45.776758523516627,0 10.92452068387407,45.776828780589156,0 10.924509283786309,45.776902029833849,0 10.924539621947476,45.776974575794398,0 10.924788623820952,45.77713110557773,0 10.924918195176552,45.777255554340904,0 10.925034859605244,45.777409443353562,0 10.925088916635561,45.777564387496767,0 10.925106515972026,45.777671241345196,0 10.925129731312309,45.77773903671941,0 10.925207425524265,45.777771820479195,0 10.925326691115693,45.77779903295307,0 10.925397931817226,45.777846536798037,0 10.925471686623592,45.777967055359653,0 10.925522728566795,45.77803438154271,0 10.925771737939156,45.778190909035288,0 10.925892848698419,45.778271665042816,0 10.926007506207103,45.778367141169483,0 10.926194162388587,45.778734149630047,0 10.926370007723945,45.778989319165795,0 10.92658826542772,45.779263254922938,0 10.926662192454621,45.779388640262688,0 10.926681640327089,45.779549037885708,0 10.926672087487264,45.779675831382491,0 10.926624316198675,45.779905549533012,0 10.926494740388394,45.780185352234611,0 10.926325937811116,45.780538873481476,0 10.926323508587904,45.78067041725869,0 10.926365173095055,45.78127365333836,0 10.926372719473134,45.781492697379953,0 10.926387222899104,45.781711624075484,0 10.926385967769955,45.781877241341334,0 10.926278766806529,45.782200500586505,0 10.926203666942166,45.782445290783215,0 10.92604382537905,45.782857106028963,0 10.925884064410054,45.783069230297031,0 10.925737042991402,45.783247046234528,0 10.925669818510267,45.783316366256898,0 10.925554647854566,45.78361053627858,0 10.925337631804371,45.783979480085762,0 10.925195802285591,45.78430819239415,0 10.925136621067995,45.784611159136581,0 10.925179620736319,45.784849087449217,0 10.925182134951838,45.784922102135795,0 10.925128152131494,45.784971716739548,0</coordinates></LineString></Placemark></Document></kml>
