<?xml version="1.0" encoding="UTF-8"?>
<kml xmlns="http://www.opengis.net/kml/2.2" xmlns:atom="http://www.w3.org/2005/Atom"><Document><name>RR Corna Piana</name><description>Riserva naturale provinciale di Bes - Corna Piana</description><open>1</open><atom:author><atom:name>Parco Naturale Locale del Monte Baldo</atom:name></atom:author><atom:link href="http://www.parks.it/riserva.corna.piana.brentonico/map.php"/><Style id="ConfineRiservaRegionale">
				  <LineStyle>
					<color>7f007400</color>
					<width>2</width>
				  </LineStyle>
				  <PolyStyle>
					<color>aa007400</color>
					<fill>1</fill>  
				  </PolyStyle>
				</Style><Placemark id="RRCPB"><name>RR Corna Piana di Brentonico</name><description>Perimetro dell'area protetta</description><styleUrl>#ConfineRiservaRegionale</styleUrl><Polygon><outerBoundaryIs><LinearRing><coordinates>10.896003508459192,45.788007185286013,0 10.895580793314169,45.787573084799931,0 10.895060531037824,45.78760433139535,0 10.893282005885649,45.787711803232625,0 10.892024822827478,45.787790708273384,0 10.890982685551613,45.789821344849933,0 10.892066625024761,45.790506588689986,0 10.892260745309622,45.790741110283214,0 10.892414677315486,45.790927076705827,0 10.894006951120099,45.792289100996221,0 10.894204652230227,45.793161304741282,0 10.893309828682472,45.794828089071125,0 10.892227942582119,45.794931263092828,0 10.891956927989636,45.795186014107692,0 10.892213028310326,45.7957731553252,0 10.894471099976494,45.797266308872103,0 10.894777210761086,45.797445519317002,0 10.895013899632964,45.79734715217792,0 10.895220360166931,45.797176706972294,0 10.895844141325931,45.796795200405079,0 10.896465396863972,45.796339502300619,0 10.896798126483167,45.795981381766239,0 10.897518979743866,45.795561582929167,0 10.897888437197961,45.795276634223093,0 10.898588570148076,45.794801054894741,0 10.89960496774645,45.794264538356408,0 10.900546853227761,45.793877713156071,0 10.901394995168573,45.793653258407183,0 10.901874431403536,45.793131861686454,0 10.902227939043913,45.792606361283298,0 10.902159759399673,45.792162114728065,0 10.901819509320207,45.791518267319034,0 10.901077166452067,45.79075121161587,0 10.900817714766001,45.790483763873688,0 10.900806523677575,45.790477515616246,0 10.899437442867939,45.790104921482367,0 10.898611696726286,45.789920965895185,0 10.897597045026012,45.789166846923408,0 10.896583091260318,45.788432475395147,0 10.896003508459192,45.788007185286013,0</coordinates></LinearRing></outerBoundaryIs></Polygon>
  </Placemark></Document></kml>
