<?xml version="1.0" encoding="UTF-8"?>
<kml xmlns="http://www.opengis.net/kml/2.2" xmlns:atom="http://www.w3.org/2005/Atom"><Document><name>ZSC-ZPS Bocca d&amp;#39;Ardole</name><description>Zona Speciale di Conservazione e Zona di Protezione Speciale Bocca d&amp;#39;Ardole - Corno della Paura</description><open>1</open><atom:author><atom:name>Parco Naturale Locale del Monte Baldo</atom:name></atom:author><atom:link href="http://www.parks.it/IT3120095/map.php"/><Style id="ConfineNatura2000">
				  <LineStyle>
					<color>ffd4b742</color>
					<width>2</width>
				  </LineStyle>
				  <PolyStyle>
					<color>44d4b742</color>
					<fill>1</fill>  
				  </PolyStyle>
				</Style><Placemark id="S0336"><name>SIC e ZPS Bocca d’Ardole - Corno della paura</name><description>Perimetro dell'area protetta</description><styleUrl>#ConfineNatura2000</styleUrl><Polygon><outerBoundaryIs><LinearRing><coordinates>10.931475305046083,45.771036322746411,0 10.931713422467798,45.770966162966126,0 10.932023546205997,45.770990975728886,0 10.932526709558759,45.771132758355392,0 10.932965828893368,45.771161396627043,0 10.933363473014111,45.771232819602567,0 10.933687861571185,45.771173218642083,0 10.934106485566641,45.771106008460571,0 10.934553775057067,45.771122478950623,0 10.934908492664478,45.771194622719975,0 10.935035138848056,45.771378846690148,0 10.940358548499022,45.771048025143067,0 10.940559809129837,45.770906330414945,0 10.940799166108034,45.770872202369688,0 10.941074114832874,45.770873539809593,0 10.941871746385742,45.770835929236334,0 10.94244448065735,45.770754043951243,0 10.943013872530646,45.770576021574577,0 10.943429764677061,45.77043066845502,0 10.943787643797865,45.770346421354077,0 10.944381509751434,45.770378392764677,0 10.94534581071453,45.770440122246228,0 10.945536574531863,45.770490979667656,0 10.945915791120244,45.770773089964003,0 10.946049592879314,45.770915096414576,0 10.946060687854118,45.770987050002894,0 10.945866145341341,45.771074533237943,0 10.945687727787242,45.771131681341693,0 10.945690028059465,45.771197773123617,0 10.946018166055199,45.77124628852534,0 10.946482001953562,45.771244393564636,0 10.947081752509213,45.77095160655292,0 10.947425603751036,45.770711276798188,0 10.947870802874494,45.770421121605061,0 10.948097380005743,45.770266956664578,0 10.947949337740949,45.769962874299935,0 10.947834800440171,45.769634171883538,0 10.947945159826206,45.769349728095264,0 10.948085668368645,45.769191020272778,0 10.948425315786984,45.769077009452467,0 10.948520591340987,45.769099431616993,0 10.948586132887391,45.769254622975815,0 10.948742763440789,45.769312069046521,0 10.949095810541609,45.769089613170493,0 10.949518164926124,45.768884008195649,0 10.949925231366459,45.768732771225267,0 10.950207288980032,45.768691881842628,0 10.950440558997155,45.768729981048985,0 10.950590490536298,45.768841645758876,0 10.950694135193586,45.768611421613244,0 10.950962365482273,45.768420468630431,0 10.951476210173746,45.768129125735612,0 10.952081968393891,45.767764066932706,0 10.952493410117212,45.767492505487823,0 10.952766856557163,45.767205267909368,0 10.952768728562809,45.767012854517041,0 10.952822739146596,45.766813505596375,0 10.953547428988605,45.765851420533799,0 10.953352716945545,45.765309173372259,0 10.952969331668994,45.764241461160722,0 10.95282783218653,45.7640944476044,0 10.952520613406822,45.764059770477175,0 10.952198351687505,45.764021605293088,0 10.951838712766037,45.763934162844514,0 10.951730929532026,45.763911047190518,0 10.95159207946452,45.764019491266481,0 10.951504073644823,45.764052192859594,0 10.951238096994881,45.764094175297508,0 10.951009280732833,45.764179197165674,0 10.950814579329357,45.764219961056988,0 10.950684417362361,45.764322015335075,0 10.950546651215982,45.764461636561677,0 10.950284363103723,45.764353807544346,0 10.950043373470706,45.764345444505878,0 10.949783694603195,45.764312443356168,0 10.949498592821314,45.76431731189431,0 10.949322360305656,45.764376475258665,0 10.949182634047871,45.764459972889533,0 10.949119616436489,45.764442331074299,0 10.948962940499859,45.764295259403887,0 10.948822127992262,45.764091761437243,0 10.94876367503832,45.76394925285426,0 10.948677190053804,45.763769786180731,0 10.948580493297316,45.763553056421934,0 10.948679583428468,45.763326745981843,0 10.948759985625991,45.763075796750734,0 10.948748688039219,45.762751539421892,0 10.948618528152116,45.762597775424112,0 10.948323222966652,45.762565378773893,0 10.948137868359353,45.762618456548793,0 10.948132434379019,45.762718380383198,0 10.948119611024891,45.762862105987438,0 10.94797901823193,45.762920659385841,0 10.947737383745938,45.762893584309673,0 10.947493577742112,45.762804151847341,0 10.947233907371935,45.762771144750609,0 10.947179367366882,45.762740877644966,0 10.947156773599549,45.762603995348236,0 10.946983157793388,45.76248216818594,0 10.9467491316933,45.762417524974666,0 10.946372777511401,45.762361547157219,0 10.946087685057019,45.762366406125267,0 10.945708713747738,45.76249141393518,0 10.945278237041499,45.762673453144956,0 10.944877737647968,45.762948571108232,0 10.944947691337187,45.763165759424282,0 10.944945069569307,45.76334674726774,0 10.944808808446096,45.76353001167508,0 10.944700576141081,45.763750235007812,0 10.944589090746957,45.763876921883302,0 10.944281379486716,45.764000711622941,0 10.943953682714339,45.764062445904898,0 10.943238761108015,45.764012222493136,0 10.942830011084819,45.764050375011131,0 10.942609874586234,45.764128993893344,0 10.942532721043765,45.764217658476909,0 10.942610927335199,45.764415989651717,0 10.942526597272309,45.764554691393727,0 10.942430325098995,45.764606244738516,0 10.942216064720659,45.764597410585317,0 10.941826860035336,45.764685143133804,0 10.941473292124549,45.764772268583073,0 10.941164921051703,45.764877342945951,0 10.940986729246298,45.76488037223632,0 10.940887208875923,45.764838387762119,0 10.940782928507961,45.764659217555476,0 10.94071450424407,45.764485676477285,0 10.94058565966688,45.764369317353918,0 10.94037075030084,45.764341772599778,0 10.940156922358481,45.764345406911183,0 10.939942013269224,45.76431786134517,0 10.939918786481462,45.764162270251049,0 10.939959657886265,45.764055505542899,0 10.940105061911769,45.763878331036423,0 10.940090528016301,45.76371635291445,0 10.940034043558791,45.763629960932263,0 10.939903256562753,45.763457479520099,0 10.939788991807948,45.763247281009413,0 10.939693627273833,45.763067957442757,0 10.939531314133834,45.763014560294124,0 10.93924427076718,45.762963280789748,0 10.938888332400699,45.7629818052269,0 10.938717327051558,45.762934792968444,0 10.938660629460349,45.762842164526965,0 10.93877385635235,45.762765368985725,0 10.939017910174051,45.762605239376434,0 10.939068771947493,45.762529502302343,0 10.939101165675725,45.762435360584519,0 10.938934747945279,45.762263482963249,0 10.938857206126947,45.762083857007028,0 10.938886357471739,45.761896178631538,0 10.938800772876926,45.761741646722868,0 10.93860325911287,45.761701324561791,0 10.938461362668138,45.761722452025239,0 10.938250137858164,45.761800911277426,0 10.937993501912567,45.761855183128738,0 10.937815104719615,45.761851971571446,0 10.937562193494996,45.761756432990097,0 10.937403394745774,45.761546986628801,0 10.937259176804346,45.761243702764844,0 10.937179267112723,45.760995481608113,0 10.937172174931096,45.760896039867028,0 10.936904797841024,45.760436673267485,0 10.936862325024562,45.760390314577535,0 10.93682588375906,45.760315139966188,0 10.936640798574549,45.760118617947647,0 10.93661169697708,45.760050478090115,0 10.93647812247937,45.759796926940716,0 10.93616837702081,45.759346701691307,0 10.936020226430479,45.75918698886823,0 10.935881201040829,45.759033360573341,0 10.93563743018302,45.758943902164255,0 10.9354611990763,45.759003045052452,0 10.935287341068864,45.759130779876166,0 10.935237004087453,45.759200188711318,0 10.935048177493703,45.759380667077203,0 10.934806497500201,45.759609382281091,0 10.934472854032855,45.759859621211874,0 10.934383825405924,45.759965952128461,0 10.934175878667538,45.76013918673565,0 10.933306775438949,45.760578187270873,0 10.933060428779461,45.760672206154304,0 10.932822586175865,45.760806012872386,0 10.932613942290892,45.760959290712108,0 10.932451506583787,45.76121161749731,0 10.932096461105708,45.761462211513241,0 10.931594496226385,45.761795154670509,0 10.930852261737092,45.762192057505864,0 10.930486632630199,45.762342995161625,0 10.930132501285488,45.762413871899099,0 10.930048522015003,45.762460215197152,0 10.929856598459692,45.762478433876126,0 10.929167649814152,45.762559958155187,0 10.92860596058064,45.762609380029531,0 10.928378742909031,45.762638175931059,0 10.927942688062103,45.762815252011315,0 10.926931974838297,45.763286543463373,0 10.926548897000734,45.763552567755021,0 10.926524166454392,45.763662798843185,0 10.926506803199137,45.763766900291309,0 10.926384533971703,45.763856705557941,0 10.926217145232215,45.763849780764204,0 10.925895954411724,45.763825951623581,0 10.925577003142148,45.763806578844957,0 10.925491015875668,45.764264535245637,0 10.925979500182876,45.765114258784429,0 10.926618091633639,45.765515503120646,0 10.926737673514243,45.765590638441495,0 10.927067789352421,45.765682072088588,0 10.927073346519114,45.765699960213347,0 10.927219815310499,45.765962013755775,0 10.927270194854827,45.766177593453477,0 10.927326260251695,45.766308909385721,0 10.926956690051092,45.766303123614854,0 10.926814883479603,45.766425755568797,0 10.926794108960166,45.767069383691812,0 10.926856079756094,45.767621435489353,0 10.926819157035153,45.767796404692071,0 10.926706002168013,45.768002720884766,0 10.926774586432227,45.768248052841678,0 10.927137558548838,45.768560559682896,0 10.927683108240364,45.768936114088447,0 10.928419616398504,45.769368560269129,0 10.928664776785366,45.769502693381675,0 10.928758506912784,45.769729563593401,0 10.92885596843818,45.770064585990056,0 10.928884627258311,45.770148268840238,0 10.928844600423561,45.770233111655763,0 10.928540076434709,45.770370518623693,0 10.928301543059773,45.770428654591484,0 10.92818486641371,45.770532828009792,0 10.92840874273274,45.771046073513141,0 10.928541999038785,45.771422574256732,0 10.928575838576352,45.771656468358771,0 10.928552981234469,45.771741022034675,0 10.92843837521645,45.771905280010571,0 10.928834776180095,45.77194066709481,0 10.929565820218274,45.771964386328762,0 10.930011664576098,45.77193881562664,0 10.930435356809628,45.77176933058562,0 10.930939304317226,45.771436164289007,0 10.931073357064713,45.77133770594336,0 10.931173066570942,45.771239829027053,0 10.931475305046083,45.771036322746411,0</coordinates></LinearRing></outerBoundaryIs>
 </Polygon>
  </Placemark></Document></kml>
