<?xml version="1.0" encoding="UTF-8"?>
<kml xmlns="http://www.opengis.net/kml/2.2" xmlns:atom="http://www.w3.org/2005/Atom"><Document><name>ZSC Mte Baldo Brenton</name><description>Zona Speciale di Conservazione Monte Baldo di Brentonico</description><open>1</open><atom:author><atom:name>Parco Naturale Locale del Monte Baldo</atom:name></atom:author><atom:link href="http://www.parks.it/IT3120173/map.php"/><Style id="ConfineNatura2000">
				  <LineStyle>
					<color>ffd4b742</color>
					<width>2</width>
				  </LineStyle>
				  <PolyStyle>
					<color>44d4b742</color>
					<fill>1</fill>  
				  </PolyStyle>
				</Style><Placemark id="S0334"><name>SIC Monte Baldo di Brentonico</name><description>Perimetro dell'area protetta</description><styleUrl>#ConfineNatura2000</styleUrl><Polygon><outerBoundaryIs><LinearRing><coordinates>10.887825174344405,45.845784825775517,0 10.888080271543222,45.845758440693324,0 10.888289867158118,45.845766606770653,0 10.888502650269658,45.845765600228304,0 10.888663096970321,45.845769420772569,0 10.88883020470174,45.845784653675636,0 10.889000604136131,45.845802161286066,0 10.889065692503051,45.845813970317614,0 10.889098988254551,45.845820010001788,0 10.88912851576403,45.845826738447876,0 10.889133854209426,45.845832713047294,0 10.889141096189032,45.845840818139216,0 10.889154991255255,45.845856372007397,0 10.889161780067166,45.845881521167719,0 10.889129461057227,45.845925170959276,0 10.889038589372491,45.846008013366628,0 10.888963781968974,45.846058729275633,0 10.888827124849778,45.846146366384218,0 10.888674121475955,45.846236370774946,0 10.88856349929371,45.846307860020026,0 10.88834548317436,45.846446243051275,0 10.888273924600655,45.846494656413945,0 10.888247909359825,45.846513091519519,0 10.888238307765702,45.846536031076582,0 10.888206010933793,45.84658196641881,0 10.888202130346778,45.846594102339054,0 10.888196474281688,45.84661177245188,0 10.888212973637716,45.846625429233697,0 10.88826245105451,45.846664113721822,0 10.88831823591063,45.846677583694976,0 10.88839036431145,45.846688689881908,0 10.888498283759473,45.846676733087037,0 10.888549510102676,45.846670514520426,0 10.888596383096734,45.846664823344994,0 10.888645488673461,45.846664591079112,0 10.888747059097836,45.846673267879076,0 10.888812685042341,45.846688981680558,0 10.888812807196224,45.846689013863404,0 10.88893741115505,45.84672272946414,0 10.889048890359465,45.846740516482939,0 10.88918319716916,45.846749036734501,0 10.889297598167795,45.846730181838701,0 10.889473934881778,45.846683561180939,0 10.889647042294387,45.846641535438593,0 10.88974182362395,45.846625062229464,0 10.889872614389422,45.8466084180058,0 10.890000196876011,45.846598654667098,0 10.890157594426322,45.846625380006316,0 10.890262746278578,45.84666608738069,0 10.890420561783019,45.846736304146575,0 10.890499482744419,45.846772558021257,0 10.89061124712606,45.846820100593064,0 10.890726089128982,45.846847025455929,0 10.890824407736114,45.846858006214759,0 10.891226976859869,45.846846936693957,0 10.891468962554356,45.846818314733291,0 10.891710835566066,45.84677824880287,0 10.891962462781438,45.846731266653563,0 10.892282439650653,45.846642752824749,0 10.892579654120873,45.846570371913394,0 10.892843998014154,45.846484410991017,0 10.893265098991908,45.84635878456757,0 10.893356649943959,45.846346901863619,0 10.893455074997378,45.846337122917667,0 10.893477660873002,45.846334878172485,0 10.893628223644679,45.846331871016709,0 10.893883698408404,45.846344385848901,0 10.894106324395448,45.846345612460276,0 10.89429721354445,45.846338186016936,0 10.894374671755529,45.846335173303089,0 10.894587411826244,45.846329576564081,0 10.894823109982756,45.846328449985414,0 10.895019438595577,45.846318354294077,0 10.89516009163259,45.846306235171731,0 10.895292708514502,45.846300801745038,0 10.895493181175304,45.8462990377569,0 10.895566063117117,45.846308868605021,0 10.895631756369976,45.846331446725955,0 10.895674778838938,45.846379313262915,0 10.895724461426465,45.84643859558097,0 10.895787572294843,45.846532151195412,0 10.895837054774649,45.846570832321568,0 10.895904446897623,45.846559179328104,0 10.895918759097254,45.846556704195109,0 10.895920301413334,45.846555018861849,0 10.895937909252099,45.846535751274565,0 10.895996504167133,45.846471629596458,0 10.896018441548641,45.846370799352833,0 10.896020667785036,45.846263196514158,0 10.896018790434324,45.846219476942721,0 10.896017457668892,45.846188446557093,0 10.896016439526361,45.846164778944086,0 10.896002779599964,45.846140210479142,0 10.895989783523859,45.846116833490662,0 10.895917298511412,45.846069106863943,0 10.895723511415294,45.846003647620776,0 10.895562816290335,45.845974658887926,0 10.895415327751138,45.8459570509226,0 10.895241097107837,45.845882341226144,0 10.895135964367782,45.845843927898812,0 10.895050495217157,45.845807708453755,0 10.895004200399253,45.845759856363102,0 10.894977411227829,45.845698175970156,0 10.894976613538102,45.845615767741151,0 10.894980412873663,45.845557831832437,0 10.894983917708977,45.845508667517592,0 10.894993989275955,45.845382184217108,0 10.894982926893677,45.845254040760132,0 10.894959190130221,45.845169453270152,0 10.894935632361227,45.845103177486841,0 10.894892322029344,45.845025551829821,0 10.894865801761563,45.844991340766882,0 10.894855824093783,45.844975362576967,0 10.894855690819769,45.844961579272031,0 10.894855558271239,45.844947893162875,0 10.894865133270864,45.844922665496718,0 10.894894463530242,45.844908791256636,0 10.894933724052018,45.844906314608707,0 10.895022062176199,45.844901311815271,0 10.895119207578427,45.844879119052543,0 10.895175586031982,45.844866239697552,0 10.895325678414441,45.844815158009865,0 10.895479043791923,45.844764061414871,0 10.895603015617011,45.844719972537689,0 10.895608426274912,45.844718730653149,0 10.895776133133234,45.844680225295249,0 10.895982140940461,45.84465634559303,0 10.89629002762384,45.844673183883515,0 10.896572172097111,45.844735927647143,0 10.896798735564165,45.844805805991612,0 10.897051731300788,45.844900738568981,0 10.897268695767629,45.844993554443576,0 10.897426218360637,45.845077685137888,0 10.897568640169704,45.845160617358665,0 10.89767693279849,45.845229672038258,0 10.897835200416083,45.845345661368306,0 10.897911226654079,45.84542083957048,0 10.898010616013062,45.845541689841525,0 10.898087225209673,45.84567638545299,0 10.898124618831284,45.845818137592076,0 10.898125730805024,45.845834543642162,0 10.898136093623592,45.845987484618171,0 10.898140995481695,45.846154573672912,0 10.898142557890473,45.846314812858431,0 10.898133519032575,45.84639497772411,0 10.898111699330791,45.846507255346381,0 10.898105708779799,45.846564514907804,0 10.898107395664187,45.84658199509029,0 10.898112994175376,45.846640023351441,0 10.898132859299066,45.846662819714382,0 10.898175526715074,45.846674061851658,0 10.898191896023773,45.846673982445324,0 10.898257145675588,45.846650776130467,0 10.898259402494606,45.846649122095116,0 10.89835141032834,45.846581646504774,0 10.898435807060777,45.846507984226371,0 10.89848439828206,45.846455098423426,0 10.898516755299918,45.846416026718614,0 10.898552184149624,45.846356335485844,0 10.898574159284156,45.846260081887344,0 10.898576222281834,45.846191197434379,0 10.898593123340895,45.846193199100902,0 10.898678184650494,45.846203271959816,0 10.898707861701546,45.846206785783679,0 10.898809366292948,45.846208587170516,0 10.89890100579316,45.846205855886197,0 10.89899600619599,45.846212265596812,0 10.899081207876929,45.846221010914732,0 10.899143427442857,45.846223000700142,0 10.89914997666793,45.846222969217386,0 10.899284527571631,45.846256657561277,0 10.899376501596469,45.846288263508285,0 10.899501190322075,45.846317422607896,0 10.89959614582131,45.846319252995819,0 10.899694332104721,45.846316489606643,0 10.899753076618284,45.846297892785259,0 10.899864087851146,45.846267596942589,0 10.900069876281048,45.846220819270926,0 10.900266043844649,45.846194690537537,0 10.900472302332576,45.846195982606154,0 10.900636207282854,45.846218083068187,0 10.90084275597822,45.846249133244754,0 10.900963969717834,45.846257704505994,0 10.901075315640735,45.846261743290775,0 10.901199621678622,45.846251984158542,0 10.901294353343458,45.84623092260837,0 10.901398681155525,45.846186924000953,0 10.901532156704553,45.846110732310692,0 10.901604106782219,45.846055944190368,0 10.90161989364006,45.846043921021987,0 10.901752963397033,45.845926525092835,0 10.901866344965608,45.845804646828249,0 10.901963722212992,45.845719475285847,0 10.902119748799853,45.845606546259376,0 10.902213886554936,45.845554434117759,0 10.902283146171099,45.845524953613676,0 10.902334880335763,45.84551164582696,0 10.90241283831355,45.84544945934239,0 10.902484246937773,45.845387302680336,0 10.902549042525232,45.845300421308323,0 10.902597337414811,45.845235666713762,0 10.902628743123204,45.845100449485251,0 10.90263203307561,45.845086043922116,0 10.902653850509182,45.844990445591868,0 10.902719716104755,45.844891456513523,0 10.902870002383619,45.844724671687118,0 10.902967596091456,45.844604335212296,0 10.903087342311556,45.844464110590884,0 10.903219841464001,45.844289486776688,0 10.90331649231369,45.844131060209385,0 10.903387288924336,45.844007099744104,0 10.903461588110325,45.843906012928251,0 10.903513285125964,45.843837084301995,0 10.903539203066503,45.843809488180923,0 10.903555435174198,45.843795673374686,0 10.903565166384166,45.843786469069627,0 10.903591444229409,45.843770102551765,0 10.903591484588548,45.843770077577204,0 10.90355106264909,45.843753048572317,0 10.903287152331162,45.843642994798309,0 10.903124649567003,45.843569685816753,0 10.902932736707774,45.843483122446223,0 10.902732487560336,45.843392800299291,0 10.902392975762067,45.843239660771196,0 10.902058047137668,45.843061261664559,0 10.902017333866709,45.843010799246208,0 10.901842298917195,45.842793843806099,0 10.90175974285633,45.842688923275922,0 10.901631963973337,45.842526418216707,0 10.901559562473613,45.84225275375114,0 10.901578627821818,45.842265390215346,0 10.901647065516716,45.842327376612516,0 10.901705534671301,45.842419108941627,0 10.901741245796845,45.84247872929533,0 10.901760705836958,45.84251541091632,0 10.901848727080013,45.84258889450097,0 10.901897787342017,45.842598169259475,0 10.901953518163825,45.842582271285501,0 10.901996529129669,45.842490777313138,0 10.902016512107213,45.842422129004795,0 10.90202658437353,45.842371776798366,0 10.902036644477128,45.84232371277956,0 10.9020631077712,45.842268819482683,0 10.902089614196761,45.842204766314538,0 10.902142333187221,45.842136193903272,0 10.902178639536389,45.842076744307221,0 10.902208316032658,45.842033307603494,0 10.902237982919631,45.841992159038284,0 10.902300499015359,45.841928190184383,0 10.902330189987659,45.841882463419992,0 10.90235668643739,45.841820700138399,0 10.902383180256313,45.84175893689379,0 10.902413063453238,45.841674282329713,0 10.902439593351676,45.841605649109106,0 10.902482477796143,45.841539344700877,0 10.902525297408692,45.841486778276689,0 10.902561566691922,45.841434196729914,0 10.902607691055293,45.841374768873393,0 10.902647246113103,45.841319905786484,0 10.902690120614693,45.841255891249418,0 10.902729754763836,45.841184998306396,0 10.902756238405438,45.841125524924941,0 10.902779402497714,45.841075202977393,0 10.902799295279364,45.841024872514211,0 10.90281919756773,45.840972253901846,0 10.902845760242379,45.84089675067127,0 10.902885485276427,45.84080753965889,0 10.902925186087703,45.840722908609159,0 10.90293339758278,45.840706311264391,0 10.902997663310199,45.840589113116359,0 10.903024266274059,45.840546823684001,0 10.903086950306916,45.840448506575981,0 10.903146348339039,45.840352472763513,0 10.903202429302691,45.840265588531238,0 10.903271669767809,45.84016499829707,0 10.903334352952999,45.840066681060648,0 10.903400388835696,45.839952344213145,0 10.903469664655155,45.839844883901648,0 10.903522458890986,45.839760282857611,0 10.903562078947031,45.839691679629439,0 10.903604939173613,45.839629954755814,0 10.903647823350129,45.839563649891069,0 10.903694014604458,45.83949048173514,0 10.903736862518047,45.839431046802638,0 10.903766493466396,45.839396767783072,0 10.903796078890064,45.839371648665065,0 10.90382891394208,45.839351116156877,0 10.903884798965587,45.839303161230774,0 10.903924329841796,45.839252875859373,0 10.903950832795346,45.83918882228339,0 10.903973973611324,45.839143080039939,0 10.904020082629621,45.839085941631829,0 10.904079264901679,45.839033413275395,0 10.904135094472338,45.838996906287228,0 10.904190921395816,45.83896039931561,0 10.904250045899667,45.838919318971499,0 10.904299294458085,45.838889666768068,0 10.904361692522382,45.83884859479538,0 10.904401210663137,45.838800599254824,0 10.904437443098498,45.838754887064781,0 10.904463845000523,45.838711441340081,0 10.904488118420675,45.838691206199776,0 10.904513148049499,45.838670339194856,0 10.904539525882143,45.838631473429238,0 10.904556039846263,45.838601744062217,0 10.904559495075938,45.838565114647949,0 10.904557893541446,45.83855169424757,0 10.904553208086318,45.838512433741847,0 10.904553353664161,45.838482665870423,0 10.904555776321713,45.838461587148011,0 10.904576361516289,45.838458480686199,0 10.904612420058218,45.83845303524393,0 10.90466167999662,45.838421092903623,0 10.904707833072408,45.838354794323131,0 10.904727801976684,45.838288435514066,0 10.904728195674698,45.838208291765447,0 10.904731820281439,45.838137316297221,0 10.904745160475622,45.838086970525396,0 10.904770540083817,45.838045205108607,0 10.904771561836466,45.838043524733472,0 10.904820842703852,45.838007002396623,0 10.904853667182529,45.837988759552708,0 10.904886613102537,45.837945328803734,0 10.904916354628169,45.837888151549933,0 10.904915929014981,45.837881417093612,0 10.904913319685516,45.837840059005302,0 10.904910418114143,45.837764486776543,0 10.90493712200252,45.837659217014412,0 10.904980069807122,45.837579171834548,0 10.90498573773136,45.837574326716698,0 10.905022802919827,45.837542634397217,0 10.905088505920292,45.837494700537277,0 10.905137831379662,45.837449018162403,0 10.905193703957138,45.837403350774281,0 10.90522292344694,45.837372917942837,0 10.905240431667698,45.837354680233595,0 10.905259506607823,45.837334808856504,0 10.905292430499252,45.83729595792969,0 10.905303456045127,45.837281934481034,0 10.905316223968784,45.837265689387117,0 10.90533195872742,45.837245672096735,0 10.905335765025475,45.837238577226472,0 10.905374903149127,45.837165628618891,0 10.905414509789424,45.837099314728455,0 10.905450866691854,45.837028414252366,0 10.905480628500596,45.836966656926833,0 10.905526770133301,45.83690264977777,0 10.90552976410236,45.83689823987222,0 10.905561142596715,45.836852005235265,0 10.905579525255929,45.836824915956278,0 10.905628892418996,45.836770075313225,0 10.905684854367331,45.836706089678387,0 10.905730947738713,45.836651240603715,0 10.905796730075368,45.836587276483023,0 10.905841654742867,45.836528828563615,0 10.905848605948174,45.836519787446157,0 10.905849436857055,45.83651870429415,0 10.905872125418036,45.836486113874074,0 10.90589558957935,45.836452405216825,0 10.905941784831287,45.836376948055239,0 10.905984408056845,45.836286261817023,0 10.905992417675723,45.836272243620279,0 10.906031003607531,45.836205415493581,0 10.90604935867136,45.836164636466826,0 10.906057626661305,45.836146270195421,0 10.906064525185249,45.836130938424205,0 10.906077333928627,45.836102480352999,0 10.906107309465444,45.835999510286726,0 10.906117478219551,45.835926256364061,0 10.906140793943965,45.835843875912133,0 10.90614284943311,45.83583928723472,0 10.906154574377966,45.835813106426087,0 10.906174207486302,45.835769261997413,0 10.906183817059613,45.835747802273701,0 10.906220181497913,45.83567461162103,0 10.906259752940725,45.835615167374691,0 10.906312382510514,45.83556262297266,0 10.906365078321485,45.835496338705333,0 10.906424185749428,45.835457549082292,0 10.906499624745603,45.835425665834585,0 10.906630655841692,45.835405358439168,0 10.906648321610611,45.835404276895453,0 10.907081611186529,45.8353751249171,0 10.907265874790921,45.835361029598168,0 10.907534409204032,45.835334169556795,0 10.907865134291349,45.835307452837455,0 10.908130403940403,45.83527829492963,0 10.908379355874711,45.835239940248847,0 10.908615213519449,45.83520155360241,0 10.908837944098982,45.835170006787564,0 10.909093462974099,45.835127085436497,0 10.909227760676718,45.835106783465662,0 10.909362049120141,45.835088773081019,0 10.909633699849765,45.835093974262449,0 10.909767833433605,45.835108019440973,0 10.909895342852476,45.835138077737845,0 10.910029375804022,45.835172730596341,0 10.910137235520288,45.835205034358218,0 10.910231968791864,45.835244178487592,0 10.910339718902179,45.835299379984704,0 10.910463822308651,45.835356909077383,0 10.910561873903998,45.835386899479083,0 10.910672963462053,45.835428370873032,0 10.910800429717089,45.835467588037815,0 10.910911596493767,45.835493027582082,0 10.911058757488828,45.83552084045732,0 10.911199472012349,45.835528030491574,0 10.911350025261916,45.835530661554493,0 10.911503866311961,45.835531010614353,0 10.911644625118175,45.83552904020145,0 10.911778834367245,45.835527055025608,0 10.911899963866642,45.835522748613862,0 10.912011296351709,45.835513842873802,0 10.912116060988394,45.835509500539914,0 10.912217540418299,45.835507439891586,0 10.912299349951239,45.835516214130749,0 10.912508737576571,45.8355381175394,0 10.912587222819152,45.835547202853654,0 10.912724446280603,45.835600178645059,0 10.912815876081932,45.835646182310477,0 10.912917091543783,45.8356990768049,0 10.913024889111137,45.835745115814476,0 10.913126128221032,45.835793430148399,0 10.913230661727592,45.835837172638364,0 10.913348333407404,45.835871786020988,0 10.913508611205611,45.835895044861481,0 10.913668933075495,45.835909145381585,0 10.913806874974352,45.835923536045485,0 10.913845676920827,45.835928547384917,0 10.913992783418433,45.835951090155554,0 10.914136629690413,45.835988050758118,0 10.914270582179029,45.836041018298502,0 10.914384882181844,45.836096230416011,0 10.914499193988879,45.836149152431688,0 10.91462986207299,45.836204401383455,0 10.914753983363845,45.83625963572036,0 10.914832280597103,45.836314766847217,0 10.914920320183615,45.836385948533,0 10.91500838317468,45.836452551979761,0 10.91507041212496,45.836487037957404,0 10.915178265618721,45.836521626847528,0 10.915286174405747,45.836544765762937,0 10.915397290108617,45.836581650739966,0 10.915465779357904,45.836634470693767,0 10.915504765699499,45.836696382876092,0 10.915533855829414,45.836774302312321,0 10.915553029235776,45.836872808931467,0 10.915552822800159,45.836916314784247,0 10.915536163939739,45.836978103431413,0 10.915545723061809,45.837033079874622,0 10.915607537705277,45.837113363130698,0 10.915675241148568,45.837147242369937,0 10.915771902593653,45.83720888381729,0 10.915859424131545,45.837264448170991,0 10.915956362558521,45.837345247396172,0 10.916030601016068,45.837412152140139,0 10.916075705461628,45.837458246197805,0 10.916198653987228,45.837550680695408,0 10.916292978469357,45.837590278482594,0 10.916429608847304,45.837646206603388,0 10.916494724601453,45.837669570900182,0 10.916572787884951,45.837702183093171,0 10.916644230795066,45.837739322084765,0 10.916870085884268,45.837949206089803,0 10.916960660031535,45.838018520103972,0 10.916987027751897,45.838037349973234,0 10.917002723774813,45.838048558895636,0 10.917022174155843,45.838062448232527,0 10.917145381511238,45.838138866841504,0 10.917216971979286,45.838166854642779,0 10.917291980774852,45.838185715874197,0 10.917357353442812,45.838193066646795,0 10.917448917340552,45.838200611371661,0 10.917557015510493,45.838197135167015,0 10.917812820280853,45.838183533741542,0 10.917853161777916,45.838188996709114,0 10.917869747543007,45.838191242036046,0 10.917910386601731,45.838196744990938,0 10.917919817964385,45.838198021348703,0 10.918108809835697,45.838273940969223,0 10.91811661354898,45.838279413786495,0 10.918122099602053,45.838281372030174,0 10.918129959190376,45.838288770066889,0 10.91836800283045,45.838455689296993,0 10.918555058512428,45.838668892994285,0 10.918583937173715,45.838688967424602,0 10.91861608499967,45.838711314527146,0 10.918623195821956,45.838716257103364,0 10.918633483412716,45.838723407304727,0 10.918728895056608,45.838735041113999,0 10.918740321350453,45.838736433305485,0 10.918818826476041,45.838741591478517,0 10.918926871789468,45.838742392017714,0 10.919061292195831,45.838731950244465,0 10.919096892019519,45.838729452974839,0 10.919149801076925,45.838725743196044,0 10.919235072867451,45.838717223274983,0 10.919313796125216,45.838708654912836,0 10.919399105100235,45.838697848056135,0 10.919465172975743,45.838687872114221,0 10.919521624385478,45.838675136097606,0 10.919546912195596,45.838669200882102,0 10.919671618464104,45.838651820051801,0 10.919973381671724,45.838619736932316,0 10.920098050595046,45.838604646052069,0 10.920245676303994,45.838587435563007,0 10.920373582116259,45.838574655360247,0 10.920521207649593,45.838557444517562,0 10.920645804463554,45.838546926627657,0 10.920714632773111,45.838542860236544,0 10.920826060819907,45.8385368209372,0 10.920920971622369,45.838539811624358,0 10.920944543646712,45.838539328800294,0 10.921002859751219,45.838538130244153,0 10.921068379240394,45.83853632806894,0 10.921163327153826,45.838537029941953,0 10.921555377542507,45.838592552979442,0 10.921692705241931,45.838605009288251,0 10.921807118363153,45.838617294724322,0 10.921913938865874,45.83862336767605,0 10.921990714402158,45.838627731901894,0 10.922130996423748,45.838635704207199,0 10.92227480116094,45.838652781611302,0 10.922800748862787,45.838726822444599,0 10.922892292437426,45.838739709586179,0 10.922974217846974,45.838735739976016,0 10.92360729880682,45.838672967716505,0 10.923639980484122,45.838669726107966,0 10.92369858626094,45.838690749527878,0 10.923744171714699,45.838707101202282,0 10.923809289074578,45.838730461299292,0 10.923854909075018,45.838744526159211,0 10.923897183370828,45.838763142323742,0 10.923939381013875,45.838786332140415,0 10.923988092788383,45.838811858618961,0 10.924016738639972,45.838822731439343,0 10.924053885501356,45.838836274688518,0 10.924079261572604,45.83884456355392,0 10.924083635857373,45.838845940789298,0 10.924131393203902,45.838860963217151,0 10.924222813471097,45.838877653282175,0 10.924311176362087,45.838880591244134,0 10.924389827584374,45.838876596571282,0 10.924455453122231,45.838867928500193,0 10.924547383668223,45.838852588670093,0 10.924672160081572,45.838830628817263,0 10.924741242176895,45.838810547002986,0 10.924797264159865,45.83878808041036,0 10.924876422623109,45.838752055815746,0 10.9250048005516,45.838709529416555,0 10.925126302202315,45.838687545049112,0 10.92516056325103,45.83868335291028,0 10.92526737787254,45.838670280045292,0 10.925362542651353,45.838657254039148,0 10.925457744312361,45.838641939343269,0 10.925539814527141,45.838628815295998,0 10.925589250523466,45.83860858711288,0 10.925619080527248,45.838585926206235,0 10.925676070450827,45.838553462840238,0 10.925698380874282,45.838540752093607,0 10.925784266419239,45.838493335524959,0 10.925850617341222,45.838438914448666,0 10.925935270602771,45.838359681116039,0 10.926042235083342,45.838279711479373,0 10.926169183283374,45.838210295653163,0 10.926283468238733,45.838146938322673,0 10.926376691622394,45.838095014195879,0 10.926535406051316,45.83798647963367,0 10.926665784079262,45.837913948749616,0 10.926904132227323,45.837768866713049,0 10.927037709783461,45.837683635381346,0 10.927218166953375,45.837581019161078,0 10.927393552325604,45.837503378891405,0 10.927539707753972,45.83743867964381,0 10.927684860243113,45.837344955333222,0 10.927770545724815,45.837248085144964,0 10.927854941782627,45.837113897965232,0 10.927879604255939,45.83708304839358,0 10.927880643613092,45.837081749145121,0 10.92789866526801,45.837059207731798,0 10.927928906827029,45.837021374813517,0 10.927992581762354,45.836974662677051,0 10.928092283187498,45.836939788612248,0 10.92820427472885,45.836917153221151,0 10.928242346662797,45.836919165742096,0 10.92826821478222,45.836920534600146,0 10.928302708100802,45.836922357292814,0 10.928382668021928,45.836926586053856,0 10.928391567545809,45.83692670582905,0 10.928519247753114,45.836928427699085,0 10.928619232804294,45.836901847071481,0 10.928713717430638,45.836887805463519,0 10.928849293879782,45.836860621850988,0 10.928977936722941,45.836804513366623,0 10.929105716765381,45.836723526847422,0 10.929180252563832,45.836647588811601,0 10.929323052475603,45.836518655216324,0 10.929411826453286,45.836463934308576,0 10.92955321678637,45.83637500374337,0 10.92971434744115,45.836272387798765,0 10.929875550387623,45.836158325054292,0 10.929912083521454,45.83612992789417,0 10.929948065287959,45.836101822661668,0 10.930003338032101,45.836058648241504,0 10.930096082755531,45.835984891530558,0 10.930171712587656,45.835937004077849,0 10.930237473417527,45.835895961903546,0 10.930283555540122,45.835859448395993,0 10.930292109150042,45.835853518166246,0 10.930342766463609,45.835818387237879,0 10.930378979555442,45.835788717228979,0 10.930431673006932,45.835743064179646,0 10.930449504021173,45.835725625402588,0 10.930449884725714,45.835725314743179,0 10.930450893978513,45.835724264400362,0 10.93050287412305,45.835670054661939,0 10.930537202646345,45.835628866694897,0 10.930614125936367,45.835536578000756,0 10.930636214418376,45.835510073686926,0 10.930712284849411,45.835393513523584,0 10.930811384724548,45.835260987328958,0 10.930900658498075,45.83512843633661,0 10.930935561109813,45.835069768089475,0 10.930960156531974,45.835028420501153,0 10.930976805752532,45.835000431139527,0 10.931023228325694,45.834911269796933,0 10.931056403713113,45.834844965673476,0 10.931058124393736,45.83484199963948,0 10.931058194831698,45.834841876938562,0 10.931116011237584,45.834742101864173,0 10.931175604951974,45.834641524445459,0 10.931248343170724,45.834534114601254,0 10.931321019345541,45.834435859519203,0 10.931400276835133,45.834333041335107,0 10.931466389609103,45.834237060917701,0 10.931522633564285,45.834147920499241,0 10.93157216675497,45.834083946220261,0 10.931631434013308,45.834033729664917,0 10.931723534272196,45.833969858124107,0 10.931822009115761,45.833933471394317,0 10.931900776586359,45.833906193631414,0 10.931930048714943,45.833896055131945,0 10.931991206463399,45.833874875233718,0 10.932032052015213,45.8338607282342,0 10.932156796497862,45.833812959160085,0 10.932222360286993,45.833801672036557,0 10.93227807179559,45.833794940309957,0 10.932340362140753,45.833783645489305,0 10.932448570568988,45.833761015910724,0 10.932515557628285,45.833749484921022,0 10.932552055287214,45.833743202345254,0 10.932559980951472,45.833741836946857,0 10.932566588245122,45.833740699070887,0 10.932701007456883,45.833715843633456,0 10.932792736477488,45.833709197074668,0 10.93286805303933,45.833709378919615,0 10.932874262284942,45.833709165838044,0 10.932919486312269,45.83370761208328,0 10.932930284287389,45.833707240339621,0 10.932987428894032,45.833703747686897,0 10.933038387997565,45.833700633308403,0 10.93313009016048,45.833698566514599,0 10.933221805702283,45.833694209629847,0 10.93334966168951,45.833671626490691,0 10.933418201072426,45.833619572520753,0 10.933418765639423,45.833619143529504,0 10.933524020648973,45.833546146119168,0 10.933655707834602,45.833436586536706,0 10.933686137087003,45.833409466982552,0 10.933688667084535,45.833407492590901,0 10.933714620352619,45.833384083306477,0 10.933747922238906,45.833354400294006,0 10.93382666802253,45.833299789885558,0 10.933882782972807,45.83326087106002,0 10.934096680875944,45.833096569786278,0 10.934213907798878,45.832998427933063,0 10.934221805994124,45.832991815446178,0 10.934229143578442,45.832985671490334,0 10.934271169656533,45.832950486941407,0 10.934310079457614,45.832922503546321,0 10.934448816122021,45.832822722681705,0 10.934631417082048,45.832678334444786,0 10.934707417587024,45.832609953765086,0 10.934817567457802,45.832510001392649,0 10.934926267578955,45.832409542426355,0 10.935071164778575,45.832281698298736,0 10.935183025433135,45.832199559676134,0 10.935314645084128,45.832099153060376,0 10.935419926563872,45.832021575648135,0 10.935498878259894,45.831964537579701,0 10.935567962154854,45.831914341630764,0 10.935607403292018,45.831891545818586,0 10.935673110148771,45.831857365367476,0 10.935751843544125,45.831834663294138,0 10.935843675131851,45.831811991199572,0 10.936024160551996,45.831750616304198,0 10.936047099001398,45.831740936926501,0 10.936175194195865,45.831686881722284,0 10.936250767967456,45.831645858724364,0 10.936358670133046,45.831573218831032,0 10.936465179347104,45.83149406070229,0 10.936536955317006,45.831440522445732,0 10.936718010749075,45.831289872707039,0 10.936872710057708,45.831164340669353,0 10.936883018817374,45.831156787044343,0 10.937047069078089,45.83103656505952,0 10.937139332804165,45.830945221434078,0 10.937297319232304,45.830817406278044,0 10.937471863963559,45.830659873965168,0 10.937550325513458,45.830588236350607,0 10.937678389929301,45.830474956798888,0 10.93772871784247,45.830431572649445,0 10.937834108987792,45.830335679986895,0 10.937903334007778,45.830262593092414,0 10.937970023154403,45.830208886403852,0 10.938005361703203,45.830180427681029,0 10.938107286214219,45.830114285273289,0 10.93825842911169,45.830032236720683,0 10.938425797512084,45.82997311475863,0 10.938548142530628,45.82992346581706,0 10.938560391998095,45.82991849472117,0 10.938691757831695,45.829857000542155,0 10.938882218915525,45.829770463882397,0 10.938958729764686,45.829723633881827,0 10.938982466657412,45.829709105149647,0 10.938986957322932,45.829706355693247,0 10.939049859674522,45.829667851923233,0 10.939145190989594,45.829608560275005,0 10.939273321791926,45.829540189760756,0 10.939417867800504,45.829464989631717,0 10.939549013457821,45.829437828885681,0 10.93958567251525,45.829432959831941,0 10.939650603740848,45.829424334392407,0 10.939804640012687,45.829401805256822,0 10.939932480743835,45.829379214976171,0 10.94009971687708,45.829340695529751,0 10.940561679971905,45.829295998880184,0 10.940827226634378,45.829243972089479,0 10.941030578440573,45.829189511113363,0 10.941188116777781,45.829130363119056,0 10.941272470197807,45.829096247757896,0 10.941367880388762,45.829054794206414,0 10.94143110576646,45.829021055829465,0 10.941459771133253,45.828994556409206,0 10.941520028327359,45.82893885617996,0 10.941612440553287,45.828822327653931,0 10.941701665552685,45.828692058669418,0 10.941790960626037,45.828550343056278,0 10.941847326132903,45.828438308255009,0 10.941884032188527,45.828328517617265,0 10.941924042452023,45.828214156008919,0 10.941954241282897,45.828097482386184,0 10.94197802439542,45.827960192683932,0 10.941981540250582,45.827921287430243,0 10.9419809860487,45.827910389732367,0 10.941978775686113,45.827860174272146,0 10.941982547665946,45.827761051381316,0 10.941980062934856,45.827635145994869,0 10.941970844202359,45.827538981997918,0 10.941850993325776,45.827332682621169,0 10.941779535724823,45.827240951980414,0 10.941724349273352,45.827165282871647,0 10.941707578486813,45.827141586341575,0 10.94166422568961,45.827084176595896,0 10.941647714423707,45.827059352350233,0 10.941594477429582,45.826991009060016,0 10.941532682813094,45.826924479947948,0 10.941487190486606,45.826869435897962,0 10.941467761751635,45.826835053803229,0 10.941448476802519,45.826777780325926,0 10.941442187049097,45.826736561140038,0 10.941442549084494,45.826679445157374,0 10.941439825227778,45.826663241481086,0 10.941442751710467,45.826647065975436,0 10.94144279356002,45.826640420902223,0 10.941426925511788,45.826560265211413,0 10.941419348814268,45.826541420387876,0 10.941394687563838,45.826480072727406,0 10.941365709480678,45.826402174025823,0 10.941349943604598,45.826305995229241,0 10.941331163774963,45.826168606362707,0 10.941289418622391,45.82603802895153,0 10.941205042014275,45.825918798756774,0 10.941110669108809,45.825827014288301,0 10.940996480992156,45.825762651562329,0 10.940833296493896,45.825679861440818,0 10.940670052202792,45.825606225876768,0 10.940523225275331,45.82552576400812,0 10.940511197229306,45.825518627331846,0 10.940429041705734,45.825474489988459,0 10.940343714400059,45.825436066146288,0 10.940206738501903,45.825351047751688,0 10.940115396995111,45.825298184265321,0 10.940007714879407,45.825240703631266,0 10.939913142796115,45.825180962464948,0 10.939812224933522,45.825089162062895,0 10.93975693033495,45.825031804971211,0 10.939675526576119,45.824960650226572,0 10.939580926476571,45.824905488847307,0 10.939482980084632,45.82486176477483,0 10.939394899779577,45.824811198133325,0 10.93930037379555,45.824744589891431,0 10.939238515993335,45.824689505962588,0 10.939173527604563,45.824611523201611,0 10.939146120242139,45.82458547405286,0 10.93912089226802,45.824562050324168,0 10.93911798499709,45.82456011411206,0 10.939114644435341,45.824555562433218,0 10.939098673476691,45.824540382857293,0 10.939010812524183,45.824455479680104,0 10.938939263254623,45.824379770143743,0 10.938887327431697,45.824308685249186,0 10.938830059795574,45.824226121252224,0 10.938806218227798,45.824191748791968,0 10.938741462941223,45.824077141313474,0 10.938660280668646,45.823971651361333,0 10.938657679250401,45.823967621768787,0 10.938640922483936,45.823941667148702,0 10.938592195091907,45.823866191091533,0 10.938540363013667,45.82377908291221,0 10.93848518447855,45.8237034120693,0 10.938476251663621,45.823687070669152,0 10.938446346214601,45.823632356705303,0 10.938423777011641,45.823577365218497,0 10.93841428839951,45.823524693556642,0 10.938411457000329,45.823495127290073,0 10.938409692064679,45.823489900795394,0 10.938384551606378,45.823415428475677,0 10.938522231785855,45.823174856037291,0 10.938377518722707,45.822862502982865,0 10.938097252764301,45.822501401120142,0 10.938022356059596,45.822255258865923,0 10.938014831934701,45.822230533612405,0 10.937999421805614,45.822137201503992,0 10.938360955648067,45.822269707361919,0 10.938725878615239,45.82210305906333,0 10.939086982097662,45.822020584804648,0 10.93974174075209,45.822009463726353,0 10.940359238201804,45.821973524913126,0 10.939933408511983,45.821764455174197,0 10.939649547349973,45.821451181595037,0 10.939347499939053,45.821138217882272,0 10.938954080021295,45.820814079200964,0 10.938248389755834,45.820406174180242,0 10.93788111430327,45.820310618102283,0 10.937128380356313,45.820119808976848,0 10.936646691344604,45.819873503807422,0 10.936496783683053,45.819748808752614,0 10.936445853114993,45.819329786278303,0 10.936091480737046,45.819081318404109,0 10.93564617776385,45.818834392219109,0 10.935095286892404,45.818691042905598,0 10.934636213321703,45.818571584576347,0 10.934466805958127,45.818409044843271,0 10.934072990598208,45.818072172448559,0 10.933864129362284,45.817821233625352,0 10.933318927023681,45.817744802768594,0 10.932805244845772,45.817785278016657,0 10.932330390936997,45.817876877323044,0 10.931864631329484,45.817847620482894,0 10.93130694185942,45.817847769969298,0 10.930857023669368,45.817892517331707,0 10.930368252258779,45.817965773346444,0 10.930049113636501,45.817952599654198,0 10.929845884193984,45.817835334999344,0 10.929451632950132,45.817377766266851,0 10.929120953203673,45.81703053944581,0 10.928382552472831,45.816411659778538,0 10.92799226176972,45.816260412604585,0 10.927718205384032,45.816014354066503,0 10.927187988958606,45.815271252458963,0 10.927038953164912,45.814800252379968,0 10.926826452659355,45.814413885907378,0 10.926564721107093,45.81413976282581,0 10.926559277194759,45.813982017029268,0 10.926787567159714,45.813671772578395,0 10.927180853593603,45.813525866711124,0 10.927474413530163,45.813443182534343,0 10.927563076877767,45.813392511452356,0 10.927632808823278,45.813352660104641,0 10.927668837009827,45.813330383598817,0 10.927735627956849,45.813191602067072,0 10.927813380383197,45.81280857397816,0 10.927715431235985,45.812606647512339,0 10.927317751359185,45.812155301684989,0 10.927088124036445,45.811828357862936,0 10.92708329544706,45.811688477201059,0 10.926752463664961,45.811592268580767,0 10.926072183726955,45.811387442485156,0 10.925748235351003,45.81120608630593,0 10.925764829013723,45.811171751182712,0 10.924973875152478,45.810667980157511,0 10.924373576057658,45.810143697540141,0 10.924365249915111,45.809902085814514,0 10.924413666988784,45.809723135596776,0 10.924221312171129,45.809421004935579,0 10.924099940328444,45.809066784182477,0 10.92387867456975,45.807925366760294,0 10.923808793611123,45.807481208340889,0 10.923786452488526,45.806832669368504,0 10.923912200226672,45.806257977094596,0 10.923883943337424,45.805965805047499,0 10.92363442901903,45.805588293115314,0 10.923474954847181,45.805183817333386,0 10.923531040369891,45.804699366645544,0 10.923376825445299,45.804447486101587,0 10.92338493578265,45.804154701446379,0 10.923391730182161,45.803823766584145,0 10.923252633228318,45.803482566634351,0 10.923107410330521,45.80296333497418,0 10.923110246686074,45.802739820957818,0 10.922858690663009,45.802912144121372,0 10.922490403516811,45.803011192136559,0 10.922036760639337,45.802944552228752,0 10.921333779222484,45.802575712671796,0 10.92126159052736,45.802544387304302,0 10.921236951922802,45.802604579603276,0 10.921193435376233,45.802659485536019,0 10.921130077935635,45.802681100012428,0 10.921065757570064,45.802674709383979,0 10.921005105853798,45.802619686944738,0 10.920982633498081,45.802509850197495,0 10.920938061442083,45.802456425850941,0 10.920759729991625,45.802474369802937,0 10.920694229297943,45.802355915549512,0 10.920640302383054,45.802263419341962,0 10.920589174076161,45.802174613178423,0 10.920517909977846,45.80212163748746,0 10.920701873421253,45.802034482117577,0 10.920835441980909,45.801957513178962,0 10.920858183446988,45.801919768440087,0 10.920674462920365,45.801780886667615,0 10.92049488661714,45.801684899302032,0 10.920357379254542,45.801569524112836,0 10.920228459901923,45.801470816058867,0 10.919936514391187,45.801317939901807,0 10.918448218552161,45.800693032391848,0 10.917633216113968,45.800539598882814,0 10.917030482648094,45.80038259707424,0 10.916322893335831,45.800264490437314,0 10.916018395590154,45.800288169209075,0 10.915902180047933,45.800382965451284,0 10.915947070689814,45.800530766959838,0 10.915859298537146,45.80068079194676,0 10.915657432009588,45.800600618010201,0 10.91531717314634,45.800355641323975,0 10.914869513434869,45.800075326948829,0 10.914352980650843,45.79972188700583,0 10.913973886971711,45.799505411030694,0 10.913611243738902,45.799381504990357,0 10.912974134524113,45.799382897423648,0 10.912414861462201,45.7993541679419,0 10.912359170964146,45.799362086792065,0 10.911674340962039,45.799413949932223,0 10.910976898471748,45.799397770551103,0 10.910325891928155,45.799380812073956,0 10.909966109036887,45.799340406398784,0 10.909669172446897,45.799196820438908,0 10.909265787393098,45.799045726102989,0 10.908831432595957,45.798765165621319,0 10.908303269387593,45.798458316944355,0 10.907751114655458,45.798226142906351,0 10.907443456360106,45.798157006591829,0 10.906945637537573,45.797961060324873,0 10.906513521232904,45.797745444772701,0 10.90613035623333,45.797408311786299,0 10.905933551151644,45.79708663477971,0 10.905803393310187,45.796773128820412,0 10.905699468016465,45.796644878691964,0 10.905277783643326,45.796345522764319,0 10.904897482386213,45.796091899427012,0 10.90472753849915,45.795779057526822,0 10.904498759300061,45.795551856120674,0 10.903829563446827,45.795130405145407,0 10.903532860120158,45.794822000018861,0 10.903474843766078,45.794657937205336,0 10.903375346261146,45.794464618153704,0 10.902787557483588,45.793963760248616,0 10.902499506584688,45.793690021549324,0 10.901973636473519,45.793448098207982,0 10.901709499619635,45.793407785722735,0 10.901641358466492,45.793385831372994,0 10.901874648681755,45.793132124395399,0 10.902228154834937,45.792606623013562,0 10.90215997423566,45.792162377121592,0 10.90181972455964,45.791518528766971,0 10.901077381569277,45.790751472935938,0 10.900817929801519,45.79048402607021,0 10.900806739837968,45.79047777671574,0 10.899437658368598,45.790105183100337,0 10.899079207318035,45.79002532982954,0 10.898611912546375,45.789921227415427,0 10.897597260853564,45.789167108728982,0 10.89658330684939,45.788432736947591,0 10.896003724003986,45.788007447490251,0 10.895782813580761,45.787780587419007,0 10.895581009119994,45.787573346624178,0 10.895214944931949,45.787595332901816,0 10.895060746167919,45.787604593402101,0 10.893282221352507,45.787712065601447,0 10.893013287436547,45.787728946035017,0 10.892898335186187,45.787645860109265,0 10.892738740782903,45.787542813788171,0 10.892630187048018,45.787460060798942,0 10.892485691924602,45.787356765722379,0 10.89238756450165,45.787284408497378,0 10.892157392293866,45.787179007761807,0 10.891964475634635,45.787132880838712,0 10.891806430808261,45.787075607260981,0 10.891593503154597,45.787033335868678,0 10.891396150340734,45.78700489603731,0 10.89118322324388,45.786962623870416,0 10.890990427183571,45.786920016220904,0 10.890843878395904,45.786904827786095,0 10.890688335977671,45.786921494289821,0 10.890522849698179,45.786941848087451,0 10.890378682158811,45.786997079779958,0 10.890228174604731,45.787013662326309,0 10.890098271378784,45.787043995381666,0 10.890095717599687,45.787046012419346,0 10.890095692031808,45.787044799533305,0 10.88992256873486,45.78708838211486,0 10.889321454766471,45.787383344699002,0 10.888774034820774,45.787545088115394,0 10.888402138667942,45.787734463208928,0 10.888002190083082,45.787954838725483,0 10.887875936752822,45.787960772528102,0 10.887693605373761,45.787255145213457,0 10.887673535436516,45.786507736463854,0 10.887549218062777,45.785713469460838,0 10.887582695784188,45.784789879369143,0 10.887696385428557,45.783901456391739,0 10.887712391406234,45.783847646018053,0 10.887903625007716,45.783646557401795,0 10.888191568285063,45.78334993365079,0 10.888318187095042,45.783128942379307,0 10.888335999643477,45.782774244398318,0 10.888212061950668,45.782192570654601,0 10.887957995523291,45.781727707355572,0 10.887656801570888,45.781190658110056,0 10.887450930649081,45.780829233763562,0 10.887234039379752,45.780582650742843,0 10.886671889375826,45.780258383679389,0 10.886233076825793,45.780057161449513,0 10.885989228968784,45.77989441019605,0 10.885383480615763,45.779602129106806,0 10.884818269327077,45.779248094498669,0 10.884808106215891,45.779260434917944,0 10.884807751237373,45.779260589289272,0 10.884803030565806,45.779266322404041,0 10.884604330823588,45.779348718340529,0 10.884597789955752,45.779351551713255,0 10.884584372821646,45.779357114181614,0 10.884397273840422,45.779399036076434,0 10.884054971531175,45.779452785130474,0 10.883777709678599,45.779599929473655,0 10.883454883741596,45.779758400461034,0 10.883371290312812,45.779848089518666,0 10.883088268239009,45.780169158162089,0 10.88290017988052,45.780382530687682,0 10.882367083989003,45.780706861053062,0 10.88194528074056,45.780869561916901,0 10.881840763454461,45.780903967740016,0 10.881427145882769,45.781040118018467,0 10.880946003274611,45.78114683544316,0 10.880491661533096,45.781257197760915,0 10.880310624875332,45.78139276382803,0 10.880258846583633,45.781506531449459,0 10.880247423428282,45.781531633754994,0 10.880285823565103,45.781651392924346,0 10.88040486635896,45.781812063496496,0 10.880412667356481,45.781824384994771,0 10.880572907362547,45.782077465370982,0 10.880526860079637,45.782358654709711,0 10.880522500277134,45.78237146624398,0 10.880400676187207,45.782729547744893,0 10.880374969437863,45.782805104353486,0 10.880293524264472,45.782998814149984,0 10.880138284198933,45.783368024985549,0 10.88002800960097,45.783475779719431,0 10.879915026770876,45.783586180154138,0 10.879521059209214,45.783891150500367,0 10.879030803538914,45.784211467600478,0 10.878535533693643,45.784576764689199,0 10.878349779513171,45.784798523111647,0 10.878234498667407,45.785132426375533,0 10.878231967813097,45.785503380586952,0 10.878304351992421,45.785866559253748,0 10.878306291419475,45.786121342074864,0 10.878243251240052,45.78628269394936,0 10.8781529202244,45.786376702250685,0 10.877918618906735,45.786553678078199,0 10.877556325049701,45.786802322901387,0 10.877204740851727,45.787050923760354,0 10.877083210730758,45.787268695614991,0 10.87707440633252,45.787519772011869,0 10.877168890317073,45.787972795973779,0 10.87695702469872,45.788284575152971,0 10.876501512508757,45.788248796357529,0 10.87484193834965,45.788344865849915,0 10.874081859490307,45.788403875499341,0 10.874081669050609,45.788403836320249,0 10.873942385236445,45.78837441622634,0 10.873942189623332,45.788374376231808,0 10.873619327049521,45.788173233039984,0 10.87330698158004,45.787945818603845,0 10.87306036633994,45.787886823211586,0 10.872573485094124,45.787952306274811,0 10.872829815239202,45.788565857663407,0 10.872935121694683,45.789037580460956,0 10.872981685326785,45.78953199975146,0 10.872996172429961,45.790034030418234,0 10.873037492012601,45.790543458932554,0 10.873221791471126,45.791546949381413,0 10.873596577102374,45.792950656935531,0 10.87382508985749,45.793421925473702,0 10.873930526436332,45.793908633001429,0 10.874046849041855,45.794417782589242,0 10.874093625960832,45.794938427641313,0 10.874146467860051,45.795552725402267,0 10.874646588129821,45.795813161393234,0 10.875599459835817,45.796442862764735,0 10.875686042199183,45.796558694320829,0 10.875670880033129,45.796678652067619,0 10.875587189577606,45.79694499172485,0 10.875548109026552,45.797443474522659,0 10.875600601527649,45.798009061234929,0 10.875708214912082,45.798072359006895,0 10.876020684977352,45.798307254979285,0 10.876155453830894,45.798419162423073,0 10.876248872164947,45.798729807770265,0 10.876235446847636,45.799097476586994,0 10.876718821422074,45.79967433661092,0 10.87679588478121,45.799888365676502,0 10.87679366196816,45.8000326074485,0 10.876792769965917,45.800090570987017,0 10.876790483615128,45.800596065858208,0 10.876769721372888,45.801610705787802,0 10.876724077941322,45.802444728762552,0 10.876688361658623,45.803096781649238,0 10.876718382801579,45.803235557534514,0 10.876797239921601,45.803329733165924,0 10.87734169128095,45.803657069572004,0 10.87900450871369,45.804656754637335,0 10.879159885286102,45.805006121913038,0 10.879615413186318,45.805241829648189,0 10.879813315897417,45.805344231195264,0 10.87997228090752,45.805591433406597,0 10.880038328552477,45.805694170327712,0 10.880490745901376,45.805873508851477,0 10.880931102904757,45.806142628959691,0 10.880950223974677,45.806214008006727,0 10.880950244556844,45.806214084174428,0 10.881027444214167,45.806502866626325,0 10.881296393824059,45.806774433521021,0 10.882130995332474,45.80753325344552,0 10.882330928893081,45.80770310858145,0 10.882606808932128,45.807937449725138,0 10.88446555402799,45.808958428027232,0 10.884711381099516,45.809092816593001,0 10.885437523184462,45.809489817128174,0 10.886434736875595,45.810122486174187,0 10.886758261690742,45.810365317331964,0 10.886953675793258,45.81051198996596,0 10.887235966750609,45.810859123267349,0 10.887305981515027,45.810945203739315,0 10.887481697857314,45.81127254765736,0 10.887530009057885,45.811362549136561,0 10.887742016912702,45.81186584489577,0 10.887757111949018,45.812289105232963,0 10.887639836989351,45.812969782684817,0 10.887404215801803,45.81319543196021,0 10.887069425354541,45.813516089569291,0 10.886549171862942,45.813833084148314,0 10.8865288891852,45.813845442375182,0 10.88579197534267,45.814279446613945,0 10.885145838862321,45.814659109767305,0 10.884702796791842,45.814936177615401,0 10.884459295556461,45.81508848826973,0 10.884023092643263,45.815336879381974,0 10.883751698067408,45.815491439745266,0 10.882828488818374,45.815990161180594,0 10.883057651693541,45.816699129017735,0 10.883253170667428,45.81730399552692,0 10.882865625801511,45.817435920010581,0 10.882441817825979,45.817596497997215,0 10.882138492422026,45.817711424672233,0 10.881687775640787,45.817874797842421,0 10.880953823112025,45.81814088085639,0 10.88043081252995,45.818298231700716,0 10.880152196166588,45.818382078892469,0 10.879484904003403,45.818594350284776,0 10.87831715420894,45.818963944359211,0 10.877753678901213,45.819142941687097,0 10.877628697168911,45.819182542014559,0 10.876923115815281,45.819406675139184,0 10.876500871582079,45.819546087707046,0 10.876338832582194,45.819599571524961,0 10.876558761834021,45.819753617692264,0 10.876782931926403,45.819985279322907,0 10.877067457367662,45.820224351795595,0 10.877193654686648,45.820342909684783,0 10.877278484886741,45.8204226051731,0 10.877443455880625,45.820567088570215,0 10.877426469505615,45.820606632684068,0 10.877417835257285,45.820626727485553,0 10.877464373367658,45.820704346580271,0 10.877537218687788,45.820795578022206,0 10.877587351945861,45.820907519073103,0 10.877643919782951,45.821007984566798,0 10.87767084762153,45.821087983505329,0 10.87769908544308,45.821307618486948,0 10.877713739922463,45.821474665696371,0 10.877682775969204,45.821662527306415,0 10.877641739153058,45.821822963557814,0 10.87763308064566,45.821946623298892,0 10.877627887283548,45.822090868415408,0 10.877642005138815,45.822200686813609,0 10.877665661687516,45.822280701710035,0 10.877686196354276,45.822376753266369,0 10.877721042660966,45.822603228148708,0 10.877751436717315,45.822703812405024,0 10.877785337000644,45.822829564533492,0 10.877809210325491,45.822932470154917,0 10.877846125852377,45.823030736583739,0 10.877905970963774,45.823131185840943,0 10.87801520177552,45.823263454442454,0 10.87807821000767,45.823352444040673,0 10.878128777063008,45.823510166327281,0 10.878131059290224,45.823524432803687,0 10.878149633885906,45.823640555771171,0 10.878124486349833,45.82375055706806,0 10.878099101883214,45.823835376337968,0 10.878080628054695,45.823959080450365,0 10.878126969122452,45.824038994069774,0 10.878186886868635,45.82412341342549,0 10.878260168448556,45.824260427631486,0 10.878352973270472,45.824385905798998,0 10.878406062690733,45.824463494141298,0 10.878475833690612,45.824575344018236,0 10.878538910440344,45.824671199794892,0 10.878598952309213,45.824792249957206,0 10.878648938556893,45.824888166151041,0 10.87866359715572,45.825055213080233,0 10.87861937554524,45.825224821542818,0 10.878610588918303,45.825334746450039,0 10.878596590978498,45.825586626941536,0 10.878611637110479,45.825794878334321,0 10.878652646530576,45.825980116211745,0 10.87875673781901,45.826261209619403,0 10.878861796716592,45.826645313213653,0 10.87897290672014,45.826976736559182,0 10.879070003010957,45.82720978888743,0 10.87915964964103,45.827346725853353,0 10.879295029168439,45.827474294808155,0 10.879486515175103,45.827651965674455,0 10.879755185948332,45.82803302149658,0 10.879871210710546,45.828190437931475,0 10.879970532196163,45.82831130529086,0 10.880046899446075,45.828427702569805,0 10.880156036076473,45.828548523423279,0 10.880271633514136,45.828660159662192,0 10.880351102722706,45.828758225148441,0 10.880420604366694,45.828840314526296,0 10.880489845220781,45.828894934267858,0 10.880581887624622,45.828938001436221,0 10.88058723438046,45.828940554227295,0 10.880667365016297,45.828978809424164,0 10.880733528496743,45.829054046396301,0 10.880816422534028,45.82916812149962,0 10.880902978537975,45.829323386671234,0 10.880999375168429,45.829480894723041,0 10.881102447759623,45.82965210709559,0 10.881175849214928,45.82980056630084,0 10.881252374804836,45.829932985073739,0 10.88129701716861,45.830010952353049,0 10.881325582171142,45.83006083926184,0 10.88139868229243,45.830177249816728,0 10.881451758578068,45.830252547106852,0 10.881491132190231,45.830305053370061,0 10.881542489499223,45.830387941359184,0 10.881544714231472,45.830391757032466,0 10.88157774358675,45.830423653449991,0 10.881607477433048,45.830453274751065,0 10.8817135671041,45.830597000772329,0 10.881763284563188,45.830663156282895,0 10.881833265326176,45.83079560506517,0 10.881873640514343,45.830912169205995,0 10.881900751488933,45.831010478733376,0 10.881950903264942,45.831122417399143,0 10.882044141445313,45.831291385913325,0 10.882134236049293,45.831474103480446,0 10.882253832471926,45.831661261837318,0 10.882399586601091,45.83184600882953,0 10.882528740247157,45.832005652523186,0 10.882654776296503,45.832181334574621,0 10.882830052719962,45.832372809410451,0 10.882959602278655,45.832573656887384,0 10.883043653310576,45.832809053876915,0 10.883121749090048,45.833106290476209,0 10.883169607680644,45.833321252884247,0 10.883204309462039,45.833529411600416,0 10.883268750575898,45.833767189264158,0 10.883299879358544,45.833943315599768,0 10.883298501568541,45.834029174795482,0 10.883297821346444,45.834071521901897,0 10.883260044824292,45.834229655926968,0 10.883215807690824,45.834396976399304,0 10.8831784652505,45.834499372440774,0 10.88312967148353,45.834633170028027,0 10.883049519211642,45.83480981684005,0 10.883038117471497,45.834833527338894,0 10.882978901544105,45.834956657974217,0 10.882904730533843,45.835073756182425,0 10.882820566226938,45.835172585547461,0 10.88271669865841,45.835264641625606,0 10.882644148261701,45.835341861268489,0 10.8826000431651,45.835388805195656,0 10.882489801534007,45.835499203416894,0 10.882386040716645,45.835602704570121,0 10.882263269827465,45.835772679723782,0 10.88213735652649,45.835956407444549,0 10.882001773035084,45.836156204055456,0 10.88174010069444,45.83652141235072,0 10.881730230573524,45.836538253318409,0 10.881633797662445,45.836702758862813,0 10.881520994502552,45.83688871270941,0 10.881414605417763,45.837060901272416,0 10.881394768072926,45.83709706174978,0 10.881327724390665,45.837219263722588,0 10.881237764920883,45.837398243487314,0 10.881196777341769,45.83749321024753,0 10.88112737431624,45.837656535714039,0 10.881071086881819,45.837772164460624,0 10.880983171229701,45.837929843409952,0 10.880964869094322,45.837962666255422,0 10.880920017692134,45.83806589080325,0 10.880849044641353,45.83817610519251,0 10.880784166152544,45.838238216460702,0 10.880728888403477,45.838277390552832,0 10.880654060405178,45.838325813432071,0 10.880556427008051,45.83838578703476,0 10.880462002345231,45.838438879770763,0 10.880361354233044,45.838526338877408,0 10.880299962717558,45.838611326337897,0 10.880268009299609,45.838693888629081,0 10.880243088724209,45.838761678347296,0 10.880223327484996,45.838815424793751,0 10.880187566316923,45.838907513110044,0 10.880169000801077,45.838955320980574,0 10.880150246181405,45.839049267926512,0 10.880183776455777,45.839133812560632,0 10.880240283952759,45.839225118346704,0 10.880303273562127,45.839309527245909,0 10.88036940828054,45.839380185217543,0 10.880465150780795,45.839466729865542,0 10.880584045069325,45.839578349145583,0 10.880606941742,45.839631933378804,0 10.880654337205591,45.839742846759833,0 10.88067525076243,45.839877814059903,0 10.880696123430553,45.840008202453433,0 10.880732318003016,45.840082499816695,0 10.880749531412478,45.840117837698216,0 10.880858390791577,45.840206608834478,0 10.880888215537279,45.840231519601424,0 10.880983769367637,45.840311328962855,0 10.881056970104222,45.840436897049727,0 10.881130478493395,45.840566233128037,0 10.881133531325746,45.840571604893775,0 10.881230036225952,45.840738268053009,0 10.881312862191914,45.840843186379175,0 10.881404925213669,45.840886252481816,0 10.881529592945892,45.840915429763641,0 10.881684021078568,45.840976519295545,0 10.881891213628046,45.841078567530197,0 10.882167772992661,45.841246679076434,0 10.882444858447343,45.8414697289464,0 10.882632824609686,45.841615359195586,0 10.882850144063269,45.841749407388299,0 10.88305458843438,45.841906408663547,0 10.883223138008859,45.842075023661444,0 10.883355679213343,45.842243805483101,0 10.883490863216876,45.842346186584081,0 10.883665309770072,45.842446096516234,0 10.883832839455968,45.842507120090453,0 10.884033103367143,45.842567990539479,0 10.884134522424779,45.84259782745486,0 10.884193956054592,45.842615311192134,0 10.884331917692972,45.842665027206678,0 10.884453815830542,45.842746867048881,0 10.884522594064183,45.842826879335362,0 10.884602771991862,45.842920148788195,0 10.884807489001966,45.843104616232488,0 10.885038806077731,45.843332452685857,0 10.885328786385065,45.843532541459332,0 10.885582367943927,45.843691594776388,0 10.88586890553888,45.843873386514431,0 10.886115855750383,45.844023313376212,0 10.886283983320444,45.844146140475331,0 10.886370141187502,45.844255617440929,0 10.886379473952358,45.844476267378091,0 10.886380386561854,45.844497850453642,0 10.886311270472032,45.844660310090021,0 10.886211488441637,45.844782886204683,0 10.886068808995294,45.844925489707542,0 10.885941949053866,45.845010788831985,0 10.885854044411754,45.845061564139336,0 10.885814741140155,45.845087100032366,0 10.885775956954411,45.845112296115325,0 10.885701846281858,45.845236262506027,0 10.885676267997791,45.845300480112577,0 10.885589037888227,45.845422220206906,0 10.885550017028661,45.845449873716397,0 10.885471734746458,45.845480002433419,0 10.885390179048096,45.845510145523534,0 10.885321763014719,45.845544806065945,0 10.885266569321555,45.845593138258458,0 10.885247997185273,45.84570539761549,0 10.885265651235706,45.845840379953799,0 10.885287449959705,45.846066910465474,0 10.885295762565733,45.846252299819838,0 10.885274744305891,45.846451560947827,0 10.885190981358511,45.84659388575129,0 10.885090742676596,45.846724844454563,0 10.884990412995883,45.846846643631082,0 10.88473497524987,45.847182070879555,0 10.884608761488003,45.847336040546175,0 10.884489029354462,45.847483112990666,0 10.8843625329374,45.847607325248298,0 10.884222808050918,45.847717863857397,0 10.884112350037642,45.847807662527416,0 10.884011758351587,45.847901991334822,0 10.883898178335846,45.848007828370932,0 10.883810919615197,45.848127277735415,0 10.883710932780977,45.848285703040922,0 10.883653332987551,45.848425616851458,0 10.883589402400004,45.848588450053441,0 10.883573944927813,45.84868467063913,0 10.883542511689544,45.848822170942128,0 10.883514070891597,45.848929897908555,0 10.883513838419223,45.848937813375812,0 10.883519931905575,45.849051910448544,0 10.883518031521293,45.849065052234835,0 10.883536276500914,45.849104176345307,0 10.883553388365215,45.849140867340836,0 10.883618404518337,45.849232464855781,0 10.883692541421601,45.849325407844319,0 10.883736860430997,45.849402671825054,0 10.883825393235169,45.849552623701229,0 10.883886442113406,45.849645710400409,0 10.883976681832857,45.84972704131485,0 10.884075641760576,45.849760254486874,0 10.884194236352972,45.849793251706082,0 10.884263483459527,45.849815356501601,0 10.884316103938025,45.849826212811401,0 10.884391685809874,45.849839100700116,0 10.884542589781239,45.849853447898504,0 10.884548934767125,45.849853076795974,0 10.884512354227249,45.84981947936997,0 10.884375145879176,45.849688355872772,0 10.884274670245208,45.849588843454498,0 10.884204221710686,45.849514154672256,0 10.884117100443646,45.84942592834971,0 10.884057252995474,45.849385425766393,0 10.88399361305458,45.849322095069759,0 10.883966699862141,45.849290377581944,0 10.883939475354703,45.849244940922951,0 10.883918899433207,45.849204004773014,0 10.883908350431387,45.849172107385989,0 10.883897906855596,45.84914478062538,0 10.883886921172767,45.849104147137673,0 10.883880027611008,45.849078660978634,0 10.883876181108048,45.849053547599681,0 10.883872283190769,45.849026148885272,0 10.883867969713004,45.8489857581826,0 10.88389397814858,45.848910295626872,0 10.883901870550311,45.848873446117778,0 10.883938171775629,45.848766694700267,0 10.883970090836726,45.848685102356932,0 10.88400577672734,45.848650597256018,0 10.884012107016384,45.848627676017315,0 10.884015248903465,45.848613925097695,0 10.884081801526905,45.848382401701308,0 10.884166287207886,45.848315617898017,0 10.884279908636325,45.84821435948475,0 10.884423016463899,45.848115249928306,0 10.884627999025861,45.84798151243664,0 10.884722435538146,45.847928417949632,0 10.884842950758379,45.847863751969896,0 10.88501528241315,45.847739324645246,0 10.885171261758847,45.847617264101906,0 10.885262206444844,45.847541291149035,0 10.885389008452437,45.847449126224198,0 10.885522180937359,45.84733861693374,0 10.885655114848165,45.847202927398151,0 10.885752103006375,45.84707427565256,0 10.885858822801543,45.846936419226545,0 10.885959018628906,45.846800882790845,0 10.886068793309326,45.8466401210828,0 10.886152554001194,45.846497793871336,0 10.886217592803142,45.846401699250777,0 10.886332601413887,45.846261089880947,0 10.886395192576423,45.846194475148486,0 10.886479760281297,45.846136845588092,0 10.886600445857566,45.846090491392616,0 10.886809363321316,45.84602769886655,0 10.887044427874908,45.845960202259818,0 10.887243659246137,45.845911188851396,0 10.887511544236647,45.845852695187773,0 10.887825174344405,45.845784825775517,0</coordinates></LinearRing></outerBoundaryIs>
 </Polygon>
  </Placemark></Document></kml>
