<?xml version="1.0" encoding="UTF-8"?>
<kml xmlns="http://www.opengis.net/kml/2.2" xmlns:atom="http://www.w3.org/2005/Atom"><Document><name>ZSC Talpina-Brentonico</name><description>Zona Speciale di Conservazione Talpina-Brentonico</description><open>1</open><atom:author><atom:name>Parco Naturale Locale del Monte Baldo</atom:name></atom:author><atom:link href="http://www.parks.it/IT3120150/map.php"/><Style id="ConfineNatura2000">
				  <LineStyle>
					<color>ffd4b742</color>
					<width>2</width>
				  </LineStyle>
				  <PolyStyle>
					<color>44d4b742</color>
					<fill>1</fill>  
				  </PolyStyle>
				</Style><Placemark id="S0333"><name>SIC Talpina-Brentonico</name><description>Perimetro dell'area protetta</description><styleUrl>#ConfineNatura2000</styleUrl><Polygon><outerBoundaryIs><LinearRing><coordinates>10.991505542832348,45.83943257096162,0 10.992004184156841,45.839418585128605,0 10.992320479322355,45.839592790111709,0 10.992462382609379,45.839542740475387,0 10.992678545209365,45.839454393081148,0 10.992963859714139,45.839502272978145,0 10.993474034789967,45.839176208844606,0 10.993673945485504,45.839056428149085,0 10.994159551283659,45.838677930146829,0 10.994578453233384,45.838337596982726,0 10.994821249487968,45.838148346408261,0 10.994995836664083,45.837955001441145,0 10.995072360003675,45.83787437540564,0 10.995148695160834,45.837682746307884,0 10.995003208186866,45.837632427887058,0 10.994995815788503,45.837517642577652,0 10.994043370756268,45.837385911172603,0 10.994210432948185,45.837164601999241,0 10.994413714887315,45.836907715610501,0 10.994701305423213,45.836561998812989,0 10.994892095117377,45.836305329703485,0 10.995129408789195,45.835951755546041,0 10.995488804907104,45.835517424677697,0 10.995751089331099,45.835163412921723,0 10.997968639798881,45.833168801927584,0 10.998272977426252,45.833163476145018,0 10.998439824795366,45.832890044559711,0 10.998519073993755,45.832758215319558,0 10.998604608953405,45.832580542264523,0 10.998722515760049,45.832316209483778,0 10.99876815020405,45.832217182003447,0 10.998994827619827,45.83168461468982,0 10.998986119582018,45.831441613279715,0 10.99893529020947,45.831289209048514,0 10.998750873165863,45.830784984097555,0 10.998725554947487,45.830711422861931,0 10.998734972861502,45.830235520850749,0 10.998754413408115,45.829933880047783,0 10.998732489835893,45.829743969511362,0 10.998899195085977,45.829280693627908,0 10.999000490022562,45.82857107537091,0 10.999066404300722,45.828300337971726,0 10.999022336876697,45.827492354216488,0 10.999028556524193,45.827243804340377,0 10.99891123677773,45.827134852895256,0 10.998860053438312,45.827068908016855,0 10.998720994728869,45.826889741074886,0 10.99865788207272,45.826605404061496,0 10.998615183568532,45.826468714857192,0 10.99846933322816,45.826196397752554,0 10.998379405980614,45.8260076750718,0 10.998299114502929,45.825876930514006,0 10.998183503431648,45.825815522882628,0 10.997830437276797,45.825668406875451,0 10.997487007198739,45.825579268038283,0 10.997113355343588,45.825490656599101,0 10.996809033087816,45.825437834085065,0 10.996372098903542,45.825271036929649,0 10.9960959234404,45.825159571963113,0 10.995955757382914,45.825045731463177,0 10.995765912676955,45.824916899485586,0 10.995573421778214,45.824819830343436,0 10.995328230433904,45.824728968584907,0 10.995183721409353,45.82470506310807,0 10.994804411416522,45.824669402677124,0 10.994499712163769,45.824817447213874,0 10.994354448424184,45.824772411053623,0 10.994185385203027,45.824696073314804,0 10.993950958957733,45.824694882552045,0 10.993724278879714,45.824698841349445,0 10.993479468151532,45.824618539483424,0 10.993395030306601,45.824583010987382,0 10.993172707913452,45.824285591793924,0 10.993113020859518,45.824202058489966,0 10.992957008437447,45.823855905450444,0 10.992939821881313,45.823798060338099,0 10.992968170113576,45.823533267001309,0 10.993296296197494,45.823194521531761,0 10.993296490160009,45.82309408391199,0 10.993265145334865,45.82285147681349,0 10.99326061647367,45.822724691734017,0 10.993144640241441,45.822652713042636,0 10.993002035114397,45.822470192330478,0 10.992795778165343,45.82219892186388,0 10.992693040686762,45.821862411161497,0 10.992685298055573,45.821808361572849,0 10.992677932990714,45.82175695522448,0 10.992766361772999,45.821269102314815,0 10.992802631189631,45.821226182069253,0 10.992890816064321,45.821186796981685,0 10.992906710223016,45.821176791618754,0 10.993114870305147,45.821078010396207,0 10.993204405535197,45.821044731030192,0 10.993316615081275,45.820799616836247,0 10.993356674671979,45.820439469872312,0 10.993340825390383,45.820101443239551,0 10.993298162676336,45.819541874922521,0 10.993335581714033,45.819107771369133,0 10.993309916658806,45.818600764308229,0 10.992756880695325,45.818568130578178,0 10.991770935871463,45.818479613895519,0 10.991163372964872,45.818405742034685,0 10.991386544571593,45.817885384680338,0 10.991388584053611,45.817566080615691,0 10.991686891339182,45.817269777764487,0 10.991909693540709,45.817115647757589,0 10.991979170128451,45.816804555363689,0 10.991734271388479,45.816339314747616,0 10.991563342898756,45.815531468686878,0 10.991330433726604,45.814806350817676,0 10.991323102459623,45.814224280822764,0 10.990703809884254,45.813615321645919,0 10.99017105603594,45.813361680219828,0 10.989529561201504,45.813447982047371,0 10.98878944582991,45.813404533829051,0 10.988186874768694,45.813452588265513,0 10.98637173811084,45.813765889141159,0 10.985197426265936,45.813974117867787,0 10.985148082371168,45.814097049544571,0 10.98497461740282,45.814128236756339,0 10.984569337812156,45.81406015877873,0 10.984140885132343,45.814095776727378,0 10.98389290055184,45.814297280729996,0 10.983405679826463,45.814568673324146,0 10.983198618434797,45.814788246192563,0 10.983120003685173,45.815084514653869,0 10.98277873681991,45.815443468138142,0 10.982613394465609,45.815700421390389,0 10.982248810890278,45.816025476000952,0 10.981445790433932,45.816480757469236,0 10.980338401398772,45.817063386630089,0 10.979926790450993,45.817953210930646,0 10.979011474780597,45.817893956944204,0 10.978676274089056,45.817909157529897,0 10.97807530616439,45.818004082383972,0 10.977477326973913,45.818183464235076,0 10.978396184716287,45.818721573572589,0 10.978773203978378,45.819128212444376,0 10.979619989984533,45.819526707299055,0 10.980102399199943,45.819875173834177,0 10.980674235330467,45.820851234606543,0 10.980729819817583,45.821282223284911,0 10.980611018550322,45.82134062466573,0 10.980912535721442,45.821889420463478,0 10.981433242336454,45.822180874029222,0 10.981985466344362,45.822603243600085,0 10.982537362819999,45.823016222958238,0 10.982889598249143,45.823479621226433,0 10.983722640159218,45.824244543839278,0 10.984288657565788,45.824676052210016,0 10.984213381403229,45.825203215514641,0 10.984343455834365,45.825839493758842,0 10.98440682631232,45.826110709252255,0 10.984475868598345,45.826541461975424,0 10.984571052070249,45.827105795350434,0 10.984629050019404,45.827449654696551,0 10.985052788939402,45.828033875564728,0 10.985382905043323,45.828629113617595,0 10.98578648940885,45.829401488342228,0 10.985833311304392,45.830339698739877,0 10.985879196702369,45.830874145697038,0 10.98621407524028,45.831225150854898,0 10.986399954478889,45.831541186183657,0 10.987073465540844,45.831970810873287,0 10.986990129724381,45.832648358124274,0 10.986934311086696,45.833344209348759,0 10.987142352922323,45.833926600706647,0 10.987166657064726,45.83439662947027,0 10.987205134011134,45.834839981795739,0 10.987163866347929,45.83537986846396,0 10.987148876619255,45.835808293390919,0 10.986986170005894,45.836017279055184,0 10.986834423391953,45.836215499747432,0 10.986517721301411,45.836453593146771,0 10.986348033000285,45.836572835773069,0 10.986268251291632,45.836880810463121,0 10.986188280699594,45.837183501323935,0 10.986237389107314,45.83728836661156,0 10.986310486703733,45.837429816799776,0 10.986597600447253,45.837953417897559,0 10.986538642817372,45.837996732443273,0 10.986222493658058,45.838250672854691,0 10.986214525069613,45.838451677595565,0 10.986217536109313,45.83853619989619,0 10.986431193499724,45.838802069449642,0 10.986614842054632,45.838862305537596,0 10.986821728630138,45.838937994640098,0 10.986945291060918,45.83900984943331,0 10.987897526281712,45.839521871404841,0 10.988437700529332,45.83982433774154,0 10.988591686022648,45.839900946356806,0 10.988690505374436,45.839915081585772,0 10.989088635348519,45.839839430161589,0 10.989576331297028,45.839730500418007,0 10.989778703976821,45.839679400809466,0 10.990481423052913,45.839556147109136,0 10.990827206600702,45.839497259342572,0 10.991166374929824,45.839464915652592,0 10.991505542832348,45.83943257096162,0</coordinates></LinearRing></outerBoundaryIs> 
      <innerBoundaryIs><LinearRing><coordinates>10.990546160134304,45.826189021929203,0 10.990948674709266,45.826182004621309,0 10.991236388323882,45.826302134027706,0 10.991420491571256,45.826444927593343,0 10.991547192732941,45.826651295092795,0 10.991496859089699,45.826912896170278,0 10.991629173063073,45.826858442247961,0 10.991822234005708,45.82683421731663,0 10.99203243603483,45.826872266454153,0 10.992275802978662,45.827003594940258,0 10.992280266455213,45.827128663767105,0 10.99225491523474,45.827254252634802,0 10.99210097116282,45.827538519501587,0 10.991998101546301,45.827582028564876,0 10.991911254983163,45.827656546571681,0 10.991915345868359,45.827771193608342,0 10.9918572008024,45.827813922564289,0 10.991679790331375,45.827858733023938,0 10.99140136527264,45.827999164427823,0 10.99135961438842,45.828083324049629,0 10.991348424738119,45.828187807417635,0 10.991414011945823,45.828353527331821,0 10.991330509535379,45.828521844769583,0 10.991112088201433,45.828671657600246,0 10.990804585525952,45.828833452786881,0 10.990510873945057,45.828963720141509,0 10.990264116811359,45.829155741887682,0 10.990045318575339,45.829295130938448,0 10.989809751050354,45.829382666673844,0 10.989681518391745,45.829551763905755,0 10.989583472527393,45.829730763455984,0 10.989322915056341,45.829954310179374,0 10.989267137225418,45.829965096061272,0 10.989195851256904,45.829909807369766,0 10.989121297247308,45.829738814920738,0 10.988996080479732,45.829574133921746,0 10.988823541182436,45.829337275184436,0 10.988891025246375,45.829137951878565,0 10.989018147877237,45.828937588195878,0 10.989160546267755,45.82874738842137,0 10.989411391393455,45.828670016206971,0 10.989539622944834,45.828500919273623,0 10.989489696892832,45.828355785679392,0 10.989435311191544,45.82808558128243,0 10.989270620603046,45.827650438181344,0 10.98924828255466,45.827442248847554,0 10.989285576812623,45.827233020939971,0 10.989328073092285,45.827169707464719,0 10.989572967755983,45.826925576871233,0 10.98969970911919,45.826714790704848,0 10.989829792979645,45.826597806174483,0 10.990000513625223,45.826365395101575,0 10.990263281472284,45.82620438152027,0 10.990546160134304,45.826189021929203,0</coordinates></LinearRing></innerBoundaryIs>
 </Polygon>
  </Placemark></Document></kml>
