<?xml version="1.0" encoding="UTF-8"?>
<kml xmlns="http://www.opengis.net/kml/2.2" xmlns:atom="http://www.w3.org/2005/Atom"><Document><name>ZSC Manzano</name><description>Zona Speciale di Conservazione Manzano</description><open>1</open><atom:author><atom:name>Parco Naturale Locale del Monte Baldo</atom:name></atom:author><atom:link href="http://www.parks.it/IT3120111/map.php"/><Style id="ConfineNatura2000">
				  <LineStyle>
					<color>ffd4b742</color>
					<width>2</width>
				  </LineStyle>
				  <PolyStyle>
					<color>44d4b742</color>
					<fill>1</fill>  
				  </PolyStyle>
				</Style><Placemark id="S0331"><name>SIC Manzano</name><description>Perimetro dell'area protetta</description><styleUrl>#ConfineNatura2000</styleUrl><Polygon><outerBoundaryIs><LinearRing><coordinates>10.965446108169871,45.872121143774237,0 10.965999509719095,45.871921629866875,0 10.966423761197607,45.871799179316596,0 10.967003288459477,45.871639510508139,0 10.967453262187238,45.871545401021521,0 10.968079765398461,45.871315830008818,0 10.968446146197833,45.871188613950778,0 10.969008782318598,45.871017712315187,0 10.969152977327036,45.870433746947704,0 10.969155828272893,45.870047965410151,0 10.96864548254903,45.869365900471188,0 10.967847897517341,45.868717569887352,0 10.967319371064496,45.868220042190408,0 10.966746718198326,45.867872960763705,0 10.966818408234147,45.86780263874622,0 10.967056848904251,45.86778701735107,0 10.967077091805063,45.867660010792505,0 10.966895601737965,45.867421333868478,0 10.966578569019147,45.867311650081774,0 10.965732601817889,45.867159257507083,0 10.965573802191329,45.866862615850806,0 10.964949486484503,45.866919419284145,0 10.963498847172943,45.866706587363424,0 10.962619160406168,45.866276067793436,0 10.961137849514353,45.865995826113732,0 10.960070902965898,45.865491763542195,0 10.959078255468562,45.865426603619042,0 10.958020940082539,45.86553274881399,0 10.957664975937336,45.865654208569978,0 10.9574158668136,45.865742054651776,0 10.957082187056237,45.865815536760614,0 10.956878789807691,45.865916149922185,0 10.956757284681066,45.866046984776496,0 10.956619067603141,45.86616229332077,0 10.956354193770396,45.866261699401605,0 10.956020667860244,45.866339694117251,0 10.955653020869301,45.866458930042143,0 10.955486889092137,45.866515985510311,0 10.95535426099956,45.866606349477735,0 10.955223911738257,45.866669569552535,0 10.955107120479683,45.866750625437426,0 10.955028314996326,45.866808444690683,0 10.954654253426718,45.866923684650722,0 10.954524551389435,45.866955799005467,0 10.954266816754687,45.866996803888902,0 10.95408750692253,45.866994094862797,0 10.953926271065512,45.866956403865132,0 10.95375898728699,45.866903406875551,0 10.953613937231477,45.866776835631001,0 10.953516680161727,45.866663900180775,0 10.953371589468858,45.866657180934638,0 10.953265337844053,45.866631399917999,0 10.953139827830825,45.866619746184945,0 10.952971151211823,45.866691627862288,0 10.952806963034099,45.866703635459416,0 10.952660425713836,45.86665554218979,0 10.952571337208051,45.866555868347355,0 10.9526045408071,45.866375905869504,0 10.952568578192126,45.866289123748302,0 10.952924590286074,45.866056207128842,0 10.952836639314951,45.865993994783807,0 10.952736450266524,45.865956239492675,0 10.952616982866759,45.86593262615181,0 10.952528498155356,45.865906511931023,0 10.952422731142065,45.865870824666608,0 10.952293620117654,45.865813826582908,0 10.952180274924793,45.865723013269069,0 10.952026436899454,45.865605261463159,0 10.951922598080767,45.865543886964531,0 10.95181951639012,45.865504205542038,0 10.951690268767397,45.865443263197534,0 10.951496980648962,45.865328159476114,0 10.951354099997079,45.865281263950564,0 10.951180582523596,45.865246732912993,0 10.950989642808398,45.865198686698811,0 10.950914517746948,45.865150633331709,0 10.950872716817738,45.865086223531854,0 10.950871950444174,45.864983617739071,0 10.950834692801489,45.864887555841399,0 10.950782630846165,45.864772011808377,0 10.950784479962653,45.86466344067545,0 10.950772973922451,45.864576805534554,0 10.950719260649384,45.864494838913913,0 10.950655359700242,45.864444620733714,0 10.950403426825899,45.864510098777927,0 10.950143920615846,45.864601361184185,0 10.949856877876497,45.864793738983877,0 10.949674628150646,45.864913281241336,0 10.949494369923469,45.865009110151632,0 10.949265159984099,45.865159056539305,0 10.949149485535484,45.865243914384749,0 10.949101982185111,45.865339450223331,0 10.94902561877074,45.865455452850824,0 10.948893646356947,45.865910721018139,0 10.948905974687161,45.867205881540521,0 10.94789899461129,45.867618703766567,0 10.948147498811615,45.868376024355122,0 10.948679277909861,45.868971457005181,0 10.949359366754178,45.869580458475347,0 10.950115474315194,45.870362107414792,0 10.95082295421596,45.871143647496382,0 10.951426675485454,45.871714298027861,0 10.952193077248323,45.872222661534792,0 10.952349401092134,45.872520013671661,0 10.954035286597168,45.872754818590636,0 10.955019925629879,45.872820046076448,0 10.955077543510757,45.87281498440187,0 10.955264633342651,45.872885472586802,0 10.955873783137074,45.872957943947135,0 10.956215148771864,45.872915251269887,0 10.956745793183009,45.872629813915559,0 10.957593698691269,45.872366569508969,0 10.958585272204798,45.872064008407094,0 10.958911184008841,45.871957091613794,0 10.95973583658663,45.871970576731471,0 10.960365233632533,45.872056492828115,0 10.960648580189076,45.872051627858525,0 10.961843110113348,45.872270612260124,0 10.9623133945597,45.872331618118757,0 10.962578593646986,45.872373116700366,0 10.963217183924796,45.872532553254771,0 10.963568110617146,45.872761412589533,0 10.963820522263845,45.873001177702953,0 10.963869140565544,45.87308446957018,0 10.963928820267439,45.873095371222753,0 10.963973451511789,45.873130963082438,0 10.964138596368809,45.873139637210684,0 10.964506015020003,45.873041202048967,0 10.964932629813598,45.872751758841389,0 10.965131855382786,45.872558342986707,0 10.965164900462197,45.872413032411963,0 10.965165125423328,45.872333239128899,0 10.965446108169871,45.872121143774237,0</coordinates></LinearRing></outerBoundaryIs>
 </Polygon>
  </Placemark></Document></kml>
